xid,name,url,stars,wikipedia,image,address,kinds,lon,lat
N948336721,Albergo Delle Povere,null,null,https://it.wikipedia.org/wiki/Albergo%20dei%20Poveri%20%28Palermo%29,https://commons.wikimedia.org/wiki/File:Reale_albergo_delle_povere_%28Palermo_-_c.so_Calatafimi%29.JPG,Palermo Corso Calatafimi SIC PA IV Circoscrizione Italia 90129 it Altarello ,"accomodations,other_hotels",13.345915794372559,38.109493255615234
R1225257,Albergo delle povere,null,null,https://it.wikipedia.org/wiki/Albergo%20dei%20Poveri%20%28Palermo%29,https://commons.wikimedia.org/wiki/File:Reale_albergo_delle_povere_%28Palermo_-_c.so_Calatafimi%29.JPG,Palermo Corso Calatafimi SIC PA IV Circoscrizione Italia 90129 it Altarello ,"architecture,historic_architecture,accomodations,interesting_places,other_hotels,other_buildings_and_structures",13.346355438232422,38.10988235473633
W83825693,Villa Igiea Hilton,null,5,https://it.wikipedia.org/wiki/Villa%20Igiea,https://commons.wikimedia.org/wiki/File:Villa_Igiea_a_Palermo_lato_giardino.jpg,Palermo Via Papa Sergio I SIC PA VIII Circoscrizione Italia 90142 it Acquasanta ,"accomodations,other_hotels",13.370223999023438,38.14537811279297
N722919041,Grand Hotel Palme,https://www.grandhotel-et-des-palmes.com/,null,https://en.wikipedia.org/wiki/Grand%20Hotel%20et%20des%20Palmes,https://commons.wikimedia.org/wiki/File:Grand_Hotel_et_des_Palmes_%28Palermo%29_-_Fa%C3%A7ade_3.jpg,Palermo Via Roma SIC PA VIII Circoscrizione Italia 90100 it ,"accomodations,other_hotels",13.359310150146484,38.123905181884766
H81692,rocco forte villa igiea,https://www.booking.com/hotel/it/grandhotelvillaigieapalermo.html,5,https://it.wikipedia.org/wiki/Villa%20Igiea,https://commons.wikimedia.org/wiki/File:Villa_Igiea_a_Palermo_lato_giardino.jpg,Palermo Via Papa Sergio I SIC PA VIII Circoscrizione Italia 90142 it Acquasanta ,"accomodations,other_hotels",13.369552612304688,38.14482116699219
W81431245,b&b montereale,https://www.booking.com/hotel/it/b-b-montereale.html,null,null,null,Palermo Corso Calatafimi SIC PA IV Circoscrizione Italia 90131 it ,"accomodations,guest_houses",13.304302215576172,38.09153366088867
N3434171016,Casa Rossa,https://www.booking.com/hotel/it/casa-rossa-monreale.html,null,null,null,Via Pietro Novelli Monreale SIC PA Italia 90046 it ,"accomodations,guest_houses",13.278131484985352,38.07559585571289
W298804963,Palazzo Ducale Suites,https://www.booking.com/hotel/it/palazzo-ducale-suites.html,null,null,null,Via Duca degli Abruzzi Monreale Palazzo Ducale Suites SIC PA Italia 90046 it 8 ,"accomodations,guest_houses",13.289206504821777,38.08065414428711
N3097710601,b&b hootel duomo monreale,https://www.booking.com/hotel/it/hootel-duomo-monreale.html,null,null,null,Monreale SIC PA Italia 90131 it ,"accomodations,guest_houses",13.291282653808594,38.08213806152344
W525463451,Hotel Guglielmo II,https://www.booking.com/hotel/it/guglielmo-ii.html,4,null,null,Via Circonvallazione Monreale SIC PA Italia 90046 it ,"accomodations,other_hotels",13.299135208129883,38.079898834228516
W860669901,B&B Elvira al Duomo,https://www.booking.com/hotel/it/b-amp-b-elvira-al-duomo.html,null,null,null,Via Fecatello Pantuso Monreale SIC PA Italia 90131 it ,"accomodations,guest_houses",13.2966890335083,38.08028030395508
N4430278153,hotel bel 3,https://www.booking.com/hotel/it/bel3.html,3,null,null,Palermo Via Ruffo di Calabria Bel 3 Hotel SIC PA IV Circoscrizione Italia 90136 it 20 Baida ,"accomodations,other_hotels",13.295426368713379,38.11238098144531
W278478070,YooRoom,https://www.booking.com/hotel/it/yooroom.html,null,null,null,Palermo Via Valerio Villareale SIC PA VIII Circoscrizione Italia 90132 it 35 ,"accomodations,guest_houses",13.356192588806152,38.122528076171875
N1968794430,Il Giardino di Ballaro,https://www.booking.com/hotel/it/il-giardino-di-ballara2.html,null,null,null,Palermo Via Porta di Castro Il Giardino di Ballaro SIC PA I Circoscrizione Italia 90134 it 75-77 Albergheria ,"accomodations,guest_houses",13.358577728271484,38.11188888549805
N8687956711,best western ai cavalieri hotel,https://www.booking.com/hotel/it/best-western-cavalieri.html,4,null,null,Palermo Via Sant'Oliva SIC PA VIII Circoscrizione Italia 90139 it ,"accomodations,other_hotels",13.353403091430664,38.12213134765625
N4472225806,All'ombra del Massimo,https://www.booking.com/hotel/it/all-39-ombra-del-massimo.html,null,null,null,Palermo All'ombra del Massimo SIC PA I Circoscrizione Italia Piazza Giuseppe Verdi it 36 Il Capo ,"accomodations,guest_houses",13.35608196258545,38.120277404785156
N4460323089,B&B Teatro Massimo,https://www.booking.com/hotel/it/b-b-teatro-massimo.html,null,null,null,Palermo B&B Teatro Massimo SIC PA I Circoscrizione Italia 90133 Via Orologio it 31 Il Capo ,"accomodations,guest_houses",13.359187126159668,38.12031936645508
N4249246291,hotel mediterraneo,https://www.booking.com/hotel/it/albergo-mediterraneo-palermo.html,3,null,null,Palermo Via Rosolino Pilo Mediterraneo SIC PA VIII Circoscrizione Italia 90132 it 43 ,"accomodations,other_hotels",13.358404159545898,38.122230529785156
N5225046326,a casa di amici - boutique hostel,https://www.booking.com/hotel/it/a-casa-di-amici-hostel-and-guest-house.html,null,null,null,Palermo Via Dante A Casa di Amici SIC PA VIII Circoscrizione Italia 90141 it 57 ,"accomodations,hostels",13.350767135620117,38.12398910522461
N268886709,hotel principe di villafranca,https://www.booking.com/hotel/it/principe-di-villafranca.html,4,null,null,Palermo Via Giuseppina Turrisi Colonna SIC PA VIII Circoscrizione Italia 90141 it ,"accomodations,other_hotels",13.350509643554688,38.126564025878906
N5451557161,Hotel Elite,https://www.booking.com/hotel/it/hotelelitepalermo.html,3,null,null,Palermo Via Mariano Stabile Ades SIC PA VIII Circoscrizione Italia 90100 it 146 ,"accomodations,other_hotels",13.35831356048584,38.123111724853516
N4242155693,Hotel Garibaldi,https://www.booking.com/hotel/it/garibaldi-palermo.html,4,null,null,Palermo Via Emerico Amari Hotel Garibaldi SIC PA VIII Circoscrizione Italia 90132 it 146 ,"accomodations,other_hotels",13.357444763183594,38.12484359741211
N722919048,Artemisia Palace Hotel,https://www.booking.com/hotel/it/artemisia-palace.html,4,null,null,Palermo Via Ammiraglio Gravina SIC PA VIII Circoscrizione Italia 90100 it ,"accomodations,other_hotels",13.358912467956543,38.12499237060547
N1659744521,Hotel Europa,https://www.booking.com/hotel/it/europa-palermo.html,3,null,null,Palermo Via Agrigento SIC PA VIII Circoscrizione Italia 90139 it 5 ,"accomodations,other_hotels",13.35230827331543,38.12852096557617
N268654722,excelsior palace palermo,https://www.booking.com/hotel/it/excelsiorpalacehotel.html,4,null,null,Palermo Via Marchese Ugo Excelsior Hilton Palermo SIC PA VIII Circoscrizione Italia 90144 it 3 ,"accomodations,other_hotels",13.351301193237305,38.13032913208008
N951754650,hotel vecchio borgo,https://www.booking.com/hotel/it/vecchio-borgo.html,4,null,null,Palermo Via Empedocle SIC PA VIII Circoscrizione Italia 90100 it ,"accomodations,other_hotels",13.357954025268555,38.128150939941406
N5124415521,120 rodionoff palermo b&b,https://www.booking.com/hotel/it/120-rodionoff-b-amp-b.html,null,null,null,Palermo Via Giuseppe Sciuti 120 Rodionoff SIC PA VIII Circoscrizione Italia 90144 it 120 ,"accomodations,guest_houses",13.339808464050293,38.13723373413086
N3388428903,astoria palace hotel,https://www.booking.com/hotel/it/astoria-palace.html,4,null,null,Palermo SIC PA VIII Circoscrizione Italia 90142 it Acquasanta ,"accomodations,other_hotels",13.357694625854492,38.13931655883789
N6445131476,bellevue del golfo hotel & spa,https://www.booking.com/hotel/it/bellevue-del-golfo.html,3,null,null,Palermo Via Plauto Bellevue del Golfo SIC PA VII Circoscrizione Italia 90148 it 40 ,"accomodations,other_hotels",13.268017768859863,38.20115661621094
W262801287,addaura hotel residence congressi,https://www.booking.com/hotel/it/addaura-residence-congressi.html,3,null,null,Palermo SIC PA VII Circoscrizione Italia 90149 it Valdesi ,"accomodations,other_hotels",13.345072746276855,38.18983840942383
N4705118829,Hospitality Hotel,https://www.booking.com/hotel/it/hospitality.html,3,null,null,Palermo Via Salvatore Morso SIC PA III Circoscrizione Italia 90127 it ,"accomodations,other_hotels",13.360637664794922,38.10661315917969
N5328954821,B&B Stazione Centrale,https://www.booking.com/hotel/it/b-b-stazione-centrale-palermo.html,null,null,null,Palermo Piazza Giulio Cesare B&B Stazione Centrale SIC PA III Circoscrizione Italia 90127 it 3 ,"accomodations,guest_houses",13.366256713867188,38.109886169433594
W49706736,san paolo palace hotel,https://www.booking.com/hotel/it/san-paolo-palace.html,4,null,null,Palermo Via Messina Marine Hotel San Paolo Palace SIC PA II Circoscrizione Italia 90123 it 91 Romagnolo ,"accomodations,other_hotels",13.38078784942627,38.1077995300293
N2039090776,Hotel Cortese,https://www.booking.com/hotel/it/cortese-palermo.html,2,null,null,Palermo Via Scarparelli Hotel Cortese SIC PA I Circoscrizione Italia 90134 it 16 Albergheria ,"accomodations,other_hotels",13.35983943939209,38.11254119873047
N3781737698,hotel palazzo brunaccini,https://www.booking.com/hotel/it/palazzo-brunaccini.html,4,null,null,Palermo Piazzetta Lucrezia Brunaccini SIC PA I Circoscrizione Italia it Albergheria ,"accomodations,other_hotels",13.360857963562012,38.11231231689453
N6906525907,beeclaire guest house,https://www.booking.com/hotel/it/beeclaire-guest-house.html,null,null,null,Palermo Piazzetta Pietro Speciale BeeClaire SIC PA I Circoscrizione Italia 90134 it 9 Albergheria ,"accomodations,guest_houses,apartments",13.359867095947266,38.113834381103516
N5457347433,eurostars centrale palace hotel,https://www.booking.com/hotel/it/centrale-palace.html,4,null,null,Palermo Via Vittorio Emanuele Centrale Palace Hotel SIC PA I Circoscrizione Italia 90134 it 327 Albergheria ,"accomodations,other_hotels",13.36087417602539,38.115516662597656
N5476722835,quintocanto hotel & spa,https://www.booking.com/hotel/it/quinto-canto.html,4,null,null,Palermo Corso Vittorio Emanuele Quintocanto SIC PA I Circoscrizione Italia 90133 it 310 La Loggia ,"accomodations,other_hotels",13.3610200881958,38.11542892456055
N1704167337,la via delle biciclette,https://www.booking.com/hotel/it/la-via-delle-biciclette.html,null,null,null,Palermo Via Divisi SIC PA I Circoscrizione Italia 90140 it 84 Kalsa ,"accomodations,guest_houses",13.364408493041992,38.112796783447266
N3396241641,Hotel Columbia,https://www.booking.com/hotel/it/columbia-palermo.html,2,null,null,Palermo Via del Celso Hotel Columbia SIC PA I Circoscrizione Italia 90134 it 37 Il Capo ,"accomodations,other_hotels",13.359546661376953,38.11642074584961
N6816720112,nuvole residenza,https://www.booking.com/hotel/it/nuvole-residenza.html,null,null,null,Palermo Via del Celso Residenza Nuvole SIC PA I Circoscrizione Italia 90134 it 14 Il Capo ,"accomodations,guest_houses",13.359951972961426,38.11648178100586
N3334428333,Hostel Agata,https://www.booking.com/hotel/it/hostel-agata.html,null,null,null,Palermo Via Roma Bar Massaro SIC PA I Circoscrizione Italia 90133 it 182 Kalsa ,"accomodations,hostels",13.363848686218262,38.115806579589844
N2039096636,Hotel del Centro,https://www.booking.com/hotel/it/centropalermo.html,3,null,null,Palermo Via Roma Hotel del Centro SIC PA I Circoscrizione Italia 90133 it 72 Kalsa ,"accomodations,other_hotels",13.365293502807617,38.1128044128418
N3734672327,hotel ambasciatori,https://www.booking.com/hotel/it/ambasciatoripalermo.html,4,null,null,Palermo Via Roma Ambascatori SIC PA I Circoscrizione Italia 90133 it 111 Kalsa ,"accomodations,other_hotels",13.364953994750977,38.114139556884766
N1452362851,antica palermo b&b,https://www.booking.com/hotel/it/antica-palermo-b-amp-b.html,null,null,null,Palermo Vicolo Madonna del Cassaro SIC PA I Circoscrizione Italia 90133 it Kalsa ,"accomodations,guest_houses",13.36524772644043,38.11688995361328
N5358421154,al piazza marina palace,https://www.booking.com/hotel/it/al-piazza-marina.html,null,null,null,Palermo Via Lungarini Al Piazza Marina B&B SIC PA I Circoscrizione Italia 90133 it 48 Kalsa ,"accomodations,guest_houses",13.367386817932129,38.11570358276367
W563491324,38 Aira Hotels,https://www.booking.com/hotel/it/moderno-gestione-gesa.html,3,null,null,"Palermo Via Roma 38 Aira Hotels SIC PA I Circoscrizione Italia 90133 it 268,270,274,276 La Loggia ","accomodations,other_hotels",13.362630844116211,38.11775588989258
N7326442359,Hotel posta,https://www.booking.com/hotel/it/posta-palermo.html,3,null,null,Palermo Via Antonio Gagini SIC PA I Circoscrizione Italia 90133 it La Loggia ,"accomodations,other_hotels",13.361883163452148,38.120697021484375
N5130930845,Hotel posta,https://www.booking.com/hotel/it/posta-palermo.html,3,null,null,Palermo Via Antonio Gagini SIC PA I Circoscrizione Italia 90133 it La Loggia ,"accomodations,other_hotels",13.362199783325195,38.12021255493164
N1705791860,Hotel Palazzo Sitano,https://www.booking.com/hotel/it/hotel-palazzo-sitano.html,4,null,null,Palermo Via Vittorio Emanuele SIC PA I Circoscrizione Italia 90133 it 111 La Loggia ,"accomodations,other_hotels",13.366726875305176,38.11772537231445
N5328218066,Hotel Villa Archirafi,https://www.booking.com/hotel/it/villa-archirafi.html,2,null,null,Palermo Via Archirafi SIC PA I Circoscrizione Italia 90133 it 8 Kalsa ,"accomodations,other_hotels",13.37144947052002,38.11257553100586
N3736327325,hotel porta felice & spa,https://www.booking.com/hotel/it/porta-felice.html,4,null,null,Palermo Via Butera Porta Felice SIC PA I Circoscrizione Italia 90133 it 45 Kalsa ,"accomodations,other_hotels",13.371445655822754,38.117984771728516
N5809523339,Casa Marta,https://www.booking.com/hotel/it/marta-palermo.html,null,null,null,Palermo Via Ponte di Mare Casa Marta SIC PA II Circoscrizione Italia 90123 it 11 Settecannoli ,"accomodations,guest_houses,apartments",13.377796173095703,38.11261749267578
N3572505796,residenza d'aragona,https://www.booking.com/hotel/it/residenza-d-aragona.html,4,null,null,Palermo Via Ottavio d'Aragona Hotel Residenza d'Aragona SIC PA VIII Circoscrizione Italia 90139 it 25 ,"accomodations,other_hotels",13.360453605651855,38.12342071533203
N4485700344,Mercure Palermo Centro,https://www.booking.com/hotel/it/mercure-palermo-centro.html,4,null,null,Palermo Via Mariano Stabile Mercure Palermo Centro SIC PA VIII Circoscrizione Italia 90139 it 112 ,"accomodations,other_hotels",13.360272407531738,38.12376022338867
N4154751797,C'era una Volta,https://www.booking.com/hotel/it/c-39-era-una-volta.html,null,null,null,Palermo Via Principe di Granatelli C'era una Volta SIC PA VIII Circoscrizione Italia 90132 it 28 ,"accomodations,guest_houses",13.359846115112305,38.12428283691406
W83826054,Astoria Palace Hotel,https://www.booking.com/hotel/it/astoria-palace.html,4,null,null,Palermo SIC PA VIII Circoscrizione Italia 90142 it Acquasanta ,"accomodations,other_hotels",13.357343673706055,38.13936233520508
W279885156,Massimo Plaza Hotel,https://www.booking.com/hotel/it/massimo-plaza.html,4,null,null,Palermo Via Maqueda Massimo Plaza Hotel SIC PA I Circoscrizione Italia 90140 it 437 Il Capo ,"accomodations,other_hotels",13.358548164367676,38.12031936645508
W73395786,Splendid Hotel la Torre,https://www.booking.com/hotel/it/splendid-la-torre.html,4,null,null,Palermo SIC PA VII Circoscrizione Italia 90151 it Valdesi ,"accomodations,other_hotels",13.329704284667969,38.210792541503906
W182675995,Grand Hotel Piazza Borsa,https://www.booking.com/hotel/it/grand-piazza-borsa.html,4,null,null,Palermo Via dei Cartari SIC PA I Circoscrizione Italia 90133 it Kalsa ,"accomodations,other_hotels",13.365179061889648,38.116336822509766
N2590319335,Hotel Tonic,https://www.booking.com/hotel/it/tonic.html,3,null,null,Palermo Via Mariano Stabile Hotel Tonic SIC PA VIII Circoscrizione Italia 90139 it 126 ,"accomodations,other_hotels",13.35919189453125,38.12339782714844
N7148045081,Hotel Politeama,https://www.booking.com/hotel/it/politeama-palace.html,4,null,null,Palermo Piazza Ruggero Settimo SIC PA VIII Circoscrizione Italia 90132 Piazza Ruggero Settimo it ,"accomodations,other_hotels",13.355942726135254,38.1253662109375
W73411325,Mondello Palace Hotel,https://www.booking.com/hotel/it/mondello-palace.html,4,null,null,Palermo Via Principe di Scalea SIC PA VII Circoscrizione Italia 90151 it Valdesi ,"accomodations,other_hotels",13.325697898864746,38.20210266113281
W666188076,khalisah,https://www.booking.com/hotel/it/khalisah.html,null,null,null,Palermo Via Scopari SIC PA I Circoscrizione Italia 90133 it Kalsa ,"accomodations,guest_houses",13.370874404907227,38.11737823486328
R4285692,Hotel Bel 3,https://www.booking.com/hotel/it/bel3.html,3,null,null,Palermo SIC PA IV Circoscrizione Italia 90136 it Baida ,"accomodations,other_hotels",13.295863151550293,38.1123161315918
W278479436,Grand Hotel Wagner,https://www.booking.com/hotel/it/grand-wagner.html,5,null,null,Palermo Via Riccardo Wagner Bebop SIC PA VIII Circoscrizione Italia 90139 it 3 ,"accomodations,other_hotels",13.358590126037598,38.12360382080078
N4430278152,addaura hotel residence congressi,https://www.booking.com/hotel/it/addaura-residence-congressi.html,3,null,null,Palermo Lungomare Cristoforo Colombo Addaura Hotel Residence SIC PA VII Circoscrizione Italia 90149 it 4452 Vergine Maria ,"accomodations,other_hotels",13.345234870910645,38.19022750854492
N7691043705,Liberty Suites,https://www.booking.com/hotel/it/liberty-suites.html,null,null,null,Palermo Via Principe di Granatelli SIC PA VIII Circoscrizione Italia 90132 it 28 ,"accomodations,guest_houses",13.359869956970215,38.124298095703125
N6375718278,hotel joli,https://www.booking.com/hotel/it/joli.html,3,null,null,Palermo Via Michele Amari Joli SIC PA VIII Circoscrizione Italia 90139 it 11 ,"accomodations,other_hotels",13.360184669494629,38.124446868896484
N6437150585,Foresteria,http://www.lanoce.org/foresteria/,null,null,null,Palermo Via Giovanni Evangelista di Blasi Foresteria SIC PA V Circoscrizione Italia 90135 it 12 Olivuzza ,"accomodations,hostels",13.332558631896973,38.1217155456543
N5347853323,Parcheggio Auto Camper,https://www.greencarpalermo.it/,null,null,null,Palermo Via Quarto dei Mille Parcheggio Auto Camper SIC PA IV Circoscrizione Italia 90129 it 11B ,"campsites,accomodations",13.343117713928223,38.11018753051758
N722919037,Atheneum,http://www.albergoathenaeum.it/,3,null,null,Palermo Via Luigi Giannettino Atheneum SIC PA IV Circoscrizione Italia 90128 it 4 ,"accomodations,other_hotels",13.352341651916504,38.10456085205078
N380989345,Casa Marconi,null,null,null,null,Palermo Via Monfenera SIC PA IV Circoscrizione Italia 90128 it ,"guest_houses,accomodations",13.35408878326416,38.10430908203125
N380989341,Hotel Orleans,null,4,null,null,Palermo Via Monfenera SIC PA IV Circoscrizione Italia 90128 it ,"accomodations,other_hotels",13.355412483215332,38.106239318847656
N5662536638,Zisa House,null,null,null,null,Palermo Via Giuseppe Whitaker Zisa House SIC PA V Circoscrizione Italia 90138 it 5 Olivuzza ,"apartments,accomodations",13.34121036529541,38.118919372558594
N3998040388,conte federico apartments,https://www.booking.com/hotel/it/conte-federico-apartments.html,null,null,null,Palermo Via del Fondaco SIC PA I Circoscrizione Italia 90134 it Albergheria ,"accomodations,guest_houses,apartments",13.358551979064941,38.11233901977539
N1686203848,Bed&Breakfast Alvorada,null,null,null,null,Palermo Via Catalano SIC PA I Circoscrizione Italia 90134 it Il Capo ,"guest_houses,accomodations",13.35876178741455,38.11687088012695
N5409578059,Houel 30 b&b,null,null,null,null,Palermo Via Houel SIC PA VIII Circoscrizione Italia 90138 it 30 ,"guest_houses,accomodations",13.349772453308105,38.121734619140625
N5457347441,B&B Sant Agostino,null,null,null,null,Palermo Via Sant'Agostino B&B Sant Agostino SIC PA I Circoscrizione Italia 90134 it 174 Il Capo ,"guest_houses,accomodations",13.35557746887207,38.11778259277344
N5451557421,Hotel Verdi,null,null,null,null,Palermo Via Maqueda Hotel Verdi SIC PA I Circoscrizione Italia 90140 it 417 Il Capo ,"accomodations,other_hotels",13.358806610107422,38.11990737915039
N2413017450,A'to Casa,null,null,null,null,Palermo Via Mariano Stabile brioscia SIC PA VIII Circoscrizione Italia 90132 it 60 ,"guest_houses,accomodations",13.355835914611816,38.122310638427734
W648584944,PARKING GIOTTO,null,null,null,null,Palermo SIC PA VIII Circoscrizione Italia 90145 it ,"campsites,accomodations",13.332348823547363,38.13206481933594
W278479675,Grand Hotel Federico II,null,null,null,null,Palermo Via Principe di Granatelli Grand Hotel Federico II SIC PA VIII Circoscrizione Italia 90132 it 60 ,"accomodations,other_hotels",13.357961654663086,38.12346649169922
N5029316521,B&B Amelie,http://www.bb-amelie.it,null,null,null,Palermo B&B Amelie SIC PA VIII Circoscrizione Italia 90139 Via Principe di Belmonte it 94 ,"accomodations,other_hotels",13.357194900512695,38.123775482177734
N722919046,Chrystal Palace Hotel,null,null,null,null,Palermo Via Roma SIC PA VIII Circoscrizione Italia 90100 it ,"accomodations,other_hotels",13.35930061340332,38.124446868896484
N1359018764,le casette di lulu,https://www.booking.com/hotel/it/le-casette-di-lula1.html,null,null,null,Palermo Via Antonino Pecoraro SIC PA VIII Circoscrizione Italia 90144 it ,"accomodations,guest_houses,apartments",13.341426849365234,38.13404083251953
N306251854,B&B Il Mandarino,null,null,null,null,Palermo SIC PA VI Circoscrizione Italia 90147 it ,"accomodations,guest_houses",13.298311233520508,38.169044494628906
N2665435246,B&B Casa e Putia,http://www.facebook.com/casaeputia,null,null,null,Palermo Via Belgio B&B Casa e Putia SIC PA VI Circoscrizione Italia 90146 it 2 Resuttana ,"accomodations,motels",13.32965087890625,38.15060043334961
W648584373,IDEA VACANZE -PALERMO,null,null,null,null,Palermo Via Imperatore Federico IDEA VACANZE -PALERMO SIC PA VIII Circoscrizione Italia 90143 it 116 Acquasanta ,"campsites,accomodations",13.352302551269531,38.14802551269531
N5731324621,b&b mondello resort,https://www.booking.com/hotel/it/b-amp-b-mondello-resort.html,null,null,null,Palermo Via Egle B&B Mondello Resort Villa Dena SIC PA VII Circoscrizione Italia 90151 it 7 Valdesi ,"accomodations,guest_houses",13.323087692260742,38.19829559326172
N4375561505,airbnb,null,null,null,null,Palermo Via Stesicoro SIC PA VII Circoscrizione Italia 90151 it Valdesi ,"accomodations,other_hotels",13.321924209594727,38.205589294433594
N5215061375,Cassaro 261,null,null,null,null,Palermo Corso Vittorio Emanuele Cassaro 261 SIC PA I Circoscrizione Italia 90133 it 261 La Loggia ,"guest_houses,accomodations",13.362380981445312,38.11616134643555
N2498797195,Panormus,null,null,null,null,Palermo Via Roma Hotel del Centro SIC PA I Circoscrizione Italia 90133 it 72 Kalsa ,"guest_houses,accomodations",13.365352630615234,38.11274337768555
N7104862685,Students Apartment - bed and social dinner - new address,https://maps.app.goo.gl/hhC4561f1Tibqo6E7,null,null,null,Palermo Via Roma Students Apartment - bed and social dinner - new address SIC PA I Circoscrizione Italia 90133 it 59A Kalsa ,"accomodations,hostels",13.365670204162598,38.1129264831543
N5839438385,Veronica home 2,null,null,null,null,Palermo SIC PA I Circoscrizione Italia 90133 Via Principe di Resuttano it Kalsa ,"apartments,accomodations",13.36758804321289,38.116172790527344
N273826453,della_Lungarini,null,null,null,null,Palermo Via Lungarini SIC PA I Circoscrizione Italia 90133 it Kalsa ,"guest_houses,accomodations",13.368457794189453,38.116268157958984
N3334311909,B&B Al Giardino dell'Alloro,https://goo.gl/maps/P7OJf,null,null,null,Palermo Vicolo San Carlo SIC PA I Circoscrizione Italia 90133 it Kalsa ,"accomodations,hostels",13.36778736114502,38.11507797241211
N1594949821,Casa Seralcadio,null,null,null,null,Palermo Via Bari SIC PA I Circoscrizione Italia 90133 it La Loggia ,"guest_houses,accomodations",13.361504554748535,38.11811828613281
N4377582838,vucciria apartment 1,https://www.booking.com/hotel/it/vucciria-appartment.html,null,null,null,Palermo Via Argenteria Nuova Al Vucciria SIC PA I Circoscrizione Italia 90133 it 19 La Loggia ,"accomodations,hostels,apartments",13.364503860473633,38.117835998535156
N4582466900,Casa Ro,null,null,null,null,Palermo Via del Parlamento Casa Ro SIC PA I Circoscrizione Italia 90133 it 31 Kalsa ,"guest_houses,accomodations",13.366033554077148,38.117271423339844
N1930347435,Letizia,http://www.hotelletizia.com,null,null,null,Palermo Letizia SIC PA I Circoscrizione Italia 90133 Via Bottai it 30 Kalsa ,"accomodations,other_hotels",13.367295265197754,38.11750793457031
N5995502685,Appartemente di San Domenico,null,null,null,null,Palermo SIC PA I Circoscrizione Italia 90133 Via Tavola Tonda it La Loggia ,"apartments,accomodations",13.364891052246094,38.11967086791992
N2671412465,casa giuditta palermo central,https://www.booking.com/hotel/it/casa-giuditta-palermo-central.html,null,null,null,Palermo Via Savona Casa Giuditta Palermo Central Apartments Hotel SIC PA I Circoscrizione Italia 90133 it 10 Kalsa ,"accomodations,apartments",13.372527122497559,38.115966796875
N2985003755,Alfea;la Taverna dell'Artista,null,null,null,null,Palermo Via Principe di Belmonte SIC PA VIII Circoscrizione Italia 90100 it ,"guest_houses,accomodations,foods,restaurants,tourist_facilities",13.360907554626465,38.12549591064453
W117430179,Hotel Ibis Style,null,null,null,null,Palermo Via Francesco Crispi Hotel Ibis Style SIC PA VIII Circoscrizione Italia 90139 it 228 ,"accomodations,other_hotels",13.361270904541016,38.12843322753906
N6261900186,VillaEsperia,https://www.hotelvillaesperia.it/,null,null,null,Palermo Viale Margherita di Savoia VillaEsperia SIC PA VII Circoscrizione Italia 90151 it 53 Valdesi ,"accomodations,other_hotels",13.332059860229492,38.19333267211914
N271670964,Nh hotels,null,null,null,null,Palermo SIC PA I Circoscrizione Italia 90133 it Kalsa ,"accomodations,other_hotels",13.37498950958252,38.115291595458984
W83824702,Hotel Holiday Inn,null,4,null,null,Palermo Viale Regione Siciliana Nord Ovest SIC PA V Circoscrizione Italia 90145 it Olivuzza ,"accomodations,other_hotels",13.328888893127441,38.12715148925781
N1804960448,MiCasa,null,null,null,null,Palermo Via Ifigenia SIC PA VII Circoscrizione Italia 90151 it Valdesi ,"guest_houses,accomodations",13.311978340148926,38.196502685546875
N1678958374,Miki Mono,null,null,null,null,Palermo Via Lorenzo Iandolino SIC PA VII Circoscrizione Italia 90151 it Valdesi ,"guest_houses,accomodations",13.312088966369629,38.196533203125
N1678959817,Casa Vacanza Bilo Maxi,null,null,null,null,Palermo Via Ifigenia SIC PA VII Circoscrizione Italia 90151 it Valdesi ,"guest_houses,accomodations",13.31202220916748,38.196651458740234
W82238406,,null,null,null,null,Palermo Via Ruffo di Calabria Bel 3 Hotel SIC PA IV Circoscrizione Italia 90136 it 20 Baida ,"accomodations,other_hotels",13.295723915100098,38.112308502197266
W285429928,,null,null,null,null,Palermo Via Plauto Bellevue del Golfo SIC PA VII Circoscrizione Italia 90148 it 40 ,"accomodations,other_hotels",13.267779350280762,38.20085906982422
W285426310,,null,null,null,null,Palermo Via Plauto Bellevue del Golfo SIC PA VII Circoscrizione Italia 90148 it 40 ,"accomodations,other_hotels",13.268468856811523,38.20112991333008
W262811319,,null,null,null,null,Palermo Via Barcarello SIC PA VII Circoscrizione Italia 90148 it ,"campsites,accomodations",13.281767845153809,38.20451736450195
W73395702,,null,4,null,null,Palermo SIC PA VII Circoscrizione Italia 90151 it Valdesi ,"accomodations,other_hotels",13.328958511352539,38.21125030517578
N4661081893,,null,null,null,null,Palermo Via del Ciclope SIC PA VII Circoscrizione Italia 90151 it Valdesi ,"campsites,accomodations",13.324121475219727,38.20075988769531
N4377213289,,null,null,null,null,Palermo Via Scarparelli SIC PA I Circoscrizione Italia 90134 it 8 Albergheria ,"accomodations,other_hotels",13.360105514526367,38.11259078979492
N4377210789,,null,null,null,null,Palermo Via Scarparelli SIC PA I Circoscrizione Italia 90134 it 8 Albergheria ,"accomodations,other_hotels",13.360057830810547,38.11264419555664
N5027762024,Gran Cafe San Domenico,https://sandomenicobologna.it,null,https://en.wikipedia.org/wiki/San%20Domenico%2C%20Bologna,https://commons.wikimedia.org/wiki/File:San_Domenico01.jpg,Palermo Lucchese SIC PA I Circoscrizione Italia 90133 Piazza San Domenico it 11 La Loggia ,"religion,architecture,historic_architecture,churches,monasteries,interesting_places,cafes,foods,catholic_churches,tourist_facilities,other_buildings_and_structures",13.363130569458008,38.11846160888672
W279887479,Chiesa Dei Tre Re Orientali,null,null,https://it.wikipedia.org/wiki/Chiesa%20dei%20Tre%20Re,https://commons.wikimedia.org/wiki/File:Tre_Re_-_Facciata.jpg,Palermo Via del Celso SIC PA I Circoscrizione Italia 90134 it Il Capo ,"religion,churches,interesting_places,other_churches",13.358170509338379,38.11611557006836
W233500614,Oratorio dell'Immacolatella,null,null,https://it.wikipedia.org/wiki/Oratorio%20dell%27Immacolatella,https://commons.wikimedia.org/wiki/File:Oratorio_Immacolatella.jpg,Palermo SIC PA I Circoscrizione Italia Piazza San Francesco d'Assisi it Kalsa ,"religion,churches,interesting_places,catholic_churches",13.366479873657227,38.11669921875
W49788642,Chiesa di Santa Maria degli Angeli - La Gancia,null,null,https://en.wikipedia.org/wiki/Santa%20Maria%20della%20Gancia%2C%20Palermo,https://commons.wikimedia.org/wiki/File:Cummentu_di_la_Gancia.jpg,Palermo Via Alloro Casa Obatala SIC PA I Circoscrizione Italia 90100 it 16 Kalsa ,"religion,churches,interesting_places,catholic_churches",13.37066650390625,38.1164436340332
W49786077,Church of San Giovanni degli Eremiti,null,null,https://en.wikipedia.org/wiki/San%20Giovanni%20degli%20Eremiti,https://commons.wikimedia.org/wiki/File:San_giovanni_degli_eremiti.jpg,Palermo SIC PA I Circoscrizione Italia it Albergheria ,"religion,historic,churches,archaeology,interesting_places,other_archaeological_sites,catholic_churches",13.354595184326172,38.109561920166016
W49769037,Basilica di San Francesco d'Assisi,null,null,https://en.wikipedia.org/wiki/San%20Francesco%20d%27Assisi%2C%20Palermo,https://commons.wikimedia.org/wiki/File:Cr%C3%A8sia_di_San_Franciscu_d%27Assisi_2.jpg,Palermo SIC PA I Circoscrizione Italia 90133 Via Merlo it Kalsa ,"religion,churches,interesting_places,catholic_churches",13.366816520690918,38.11663055419922
W279888250,Chiesa di San Giovanni dei Napoletani,null,null,https://it.wikipedia.org/wiki/Chiesa%20di%20San%20Giovanni%20dei%20Napoletani,https://commons.wikimedia.org/wiki/File:Palermo_SGiovanniDeiNapoletani.JPG,Palermo Via Quattro Aprile SIC PA I Circoscrizione Italia 90133 Piazza Marina it Kalsa ,"religion,churches,interesting_places,other_churches",13.369063377380371,38.118621826171875
W82665029,Monreale Cathedral,http://monrealeduomo.it;http://www.diocesimonreale.it/diocesi/basilica-cattedrale/,null,https://en.wikipedia.org/wiki/Monreale%20Cathedral,https://commons.wikimedia.org/wiki/File:Monreale_Cathedral_009_6388.jpg,Via degli Angeli Monreale SIC PA Italia 90131 it ,"religion,cathedrals,historic,churches,archaeology,interesting_places,other_archaeological_sites,catholic_churches",13.292276382446289,38.0820198059082
W49786082,Chiesa di Santa Teresa alla Kalsa,null,null,https://en.wikipedia.org/wiki/Santa%20Teresa%20alla%20Kalsa,https://commons.wikimedia.org/wiki/File:Santa_Teresa_kalsa.jpg,Palermo Via Savona Casa Giuditta Palermo Central Apartments Hotel SIC PA I Circoscrizione Italia 90133 it 10 Kalsa ,"religion,churches,interesting_places,catholic_churches",13.37273120880127,38.11585235595703
W332578307,Church of the Gesu,null,null,https://en.wikipedia.org/wiki/Church%20of%20the%20Ges%C3%B9%2C%20Palermo,https://commons.wikimedia.org/wiki/File:Palermo%2C_%C3%A9glise_du_Ges%C3%B9_%28fa%C3%A7ade%29.JPG,Palermo Vicolo Casa Professa SIC PA I Circoscrizione Italia 90140 it Albergheria ,"religion,churches,interesting_places,catholic_churches",13.361531257629395,38.11293411254883
W49750033,Palermo Cathedral,http://www.cattedrale.palermo.it/;http://www.cattedrale.palermo.it,null,https://en.wikipedia.org/wiki/Palermo%20Cathedral,https://commons.wikimedia.org/wiki/File:Panoramica_Cattedrale_di_Palermo.jpg,Palermo SIC PA I Circoscrizione Italia it Albergheria ,"religion,cathedrals,historic,churches,archaeology,interesting_places,other_archaeological_sites,catholic_churches",13.35600757598877,38.11434555053711
W86870896,Church of San Cataldo,null,null,https://en.wikipedia.org/wiki/Church%20of%20San%20Cataldo,https://commons.wikimedia.org/wiki/File:Palermo-San-Cataldo-bjs-1.jpg,Palermo SIC PA I Circoscrizione Italia 90140 Piazza Bellini Vicolo Santa Caterina it Kalsa ,"religion,churches,interesting_places,catholic_churches",13.362470626831055,38.11475372314453
W86870886,Martorana,http://chiesadellamartorana.it/,null,https://en.wikipedia.org/wiki/Church%20of%20Santa%20Maria%20dell%27Ammiraglio,https://commons.wikimedia.org/wiki/File:Palermo-Martorana-bjs.jpg,Palermo SIC PA I Circoscrizione Italia 90140 Piazza Bellini Vicolo Santa Caterina it Kalsa ,"religion,churches,interesting_places,catholic_churches",13.362893104553223,38.1147346496582
Q2028335,Oratorio dei Bianchi,null,null,https://it.wikipedia.org/wiki/Oratorio%20dei%20Bianchi%20%28Palermo%29,https://commons.wikimedia.org/wiki/File:Palermo-Oratorio-dei-Bianchi-bjs-01.jpg,Palermo Vicolo della Salvezza SIC PA I Circoscrizione Italia 90133 it Kalsa ,"religion,churches,interesting_places,other_churches",13.371339797973633,38.11592102050781
R6201052,Santa Maria della Sapienza,null,null,https://en.wikipedia.org/wiki/Santa%20Maria%20dello%20Spasimo,https://commons.wikimedia.org/wiki/File:Palermo-Santa-Maria-dello-Spasimo-bjs2007-01.jpg,Palermo SIC PA I Circoscrizione Italia it Kalsa ,"religion,architecture,historic_architecture,churches,interesting_places,destroyed_objects,other_churches",13.369608879089355,38.114620208740234
W203887204,ex chiesa di Sant'Alessandro dei Carbonai,null,null,https://it.wikipedia.org/wiki/Chiesa%20di%20Sant%27Alessandro%20dei%20Carbonai,https://commons.wikimedia.org/wiki/File:Chiesa_di_Sant%27Alessandro_dei_Carbonai_%28Palermo%29.JPG,Palermo Via Sant'Alessandro SIC PA I Circoscrizione Italia 90133 it La Loggia ,"religion,churches,interesting_places,other_churches",13.365249633789062,38.12126922607422
W49866776,San Stanislao Kostka,null,null,https://it.wikipedia.org/wiki/Chiesa%20di%20San%20Stanislao%20Kostka,https://commons.wikimedia.org/wiki/File:Chiesa_di_San_Stanislao%2C_Palermo_-_facciata.JPG,Palermo SIC PA I Circoscrizione Italia it Il Capo ,"religion,churches,interesting_places,catholic_churches",13.351908683776855,38.11765670776367
W49786078,Chiesa di Sant'Agostino,null,null,https://en.wikipedia.org/wiki/Sant%27Agostino%2C%20Palermo,https://commons.wikimedia.org/wiki/File:Palermo-San-Agostino-bjs.jpg,Palermo Via Sant'Agostino SIC PA I Circoscrizione Italia 90134 it Il Capo ,"religion,churches,interesting_places,catholic_churches",13.35763931274414,38.11801528930664
R403706,Santa Maria dello Spasimo,null,null,https://en.wikipedia.org/wiki/Santa%20Maria%20dello%20Spasimo,https://commons.wikimedia.org/wiki/File:Palermo-Santa-Maria-dello-Spasimo-bjs2007-01.jpg,Palermo Via Abramo Lincoln La bottega delle percussioni SIC PA I Circoscrizione Italia 90133 it 7 Kalsa ,"religion,churches,interesting_places,catholic_churches",13.37187385559082,38.11418533325195
W49750065,Chiesa di Santa Caterina,https://www.monasterosantacaterina.com/,null,https://en.wikipedia.org/wiki/Santa%20Caterina%2C%20Palermo,https://commons.wikimedia.org/wiki/File:Santa_Caterina_%28Palermo%29.JPG,Palermo Corso Vittorio Emanuele SIC PA I Circoscrizione Italia 90133 Piazza Pretoria it La Loggia ,"religion,churches,interesting_places,catholic_churches",13.362597465515137,38.11552429199219
W279888312,ex Chiesa dei Diecimila Martiri,null,null,https://it.wikipedia.org/wiki/Chiesa%20dei%20Diecimila%20Martiri,https://commons.wikimedia.org/wiki/File:Chiesa_dei_diecimila_martiri.jpg,Palermo Via Francesco Raimondo SIC PA I Circoscrizione Italia 90134 it Il Capo ,"religion,churches,interesting_places,other_churches",13.357170104980469,38.11812973022461
W279882881,Chiesa di Santa Maria di Valverde,null,null,https://it.wikipedia.org/wiki/Chiesa%20di%20Santa%20Maria%20di%20Valverde,https://commons.wikimedia.org/wiki/File:Palermo-Maria-Valverde-bjs2007-01.jpg,Palermo SIC PA I Circoscrizione Italia Largo Cavalieri di Malta it La Loggia ,"religion,churches,interesting_places,other_churches",13.363821029663086,38.12031555175781
W42414083,Chiesa di San Giovanni dei Lebbrosi,null,null,https://en.wikipedia.org/wiki/San%20Giovanni%20dei%20Lebbrosi%2C%20Palermo,https://commons.wikimedia.org/wiki/File:Palermo_SanGiovanniLebbrosi_0877.jpg,Palermo Via Salvatore Cappello SIC PA II Circoscrizione Italia 90123 it Settecannoli ,"religion,churches,interesting_places,catholic_churches",13.380257606506348,38.10366439819336
W416389735,Teatro Nuovo Montevergini,http://www.nuovomontevergini.com/it/index.jsp,null,https://it.wikipedia.org/wiki/Teatro%20Nuovo%20Montevergini,https://commons.wikimedia.org/wiki/File:Chiesa_di_Santa_Maria_delle_Grazie_di_Montevergine_%28Palermo%29.JPG,Palermo Via Montevergini Teatro Nuovo Montevergini SIC PA I Circoscrizione Italia 90134 it 8 Il Capo ,"religion,churches,cultural,theatres_and_entertainments,interesting_places,other_theatres,other_churches",13.358367919921875,38.11524200439453
W49786080,"Santa Maria della Pietà, Palermo",null,null,https://en.wikipedia.org/wiki/Santa%20Maria%20della%20Piet%C3%A0%2C%20Palermo,https://commons.wikimedia.org/wiki/File:Cr%C3%A8sia_di_Santa_Mar%C3%ACa_d%C3%A2_Piatati.jpg,Palermo Via Alloro SIC PA I Circoscrizione Italia 90133 it Kalsa ,"religion,churches,interesting_places,catholic_churches",13.37187671661377,38.1169319152832
W49865185,Chiesa di San Giuseppe Cafasso,null,null,https://it.wikipedia.org/wiki/Chiesa%20di%20San%20Giorgio%20in%20Kemonia,https://commons.wikimedia.org/wiki/File:Facade_-_San_Giuseppe_Cafasso_-_Palermo_-_Italy_2015.JPG,Palermo SIC PA I Circoscrizione Italia it Albergheria ,"religion,churches,interesting_places,catholic_churches",13.354767799377441,38.109291076660156
W233500615,Oratorio di San Lorenzo,https://turismo.comune.palermo.it/palermo-welcome-luogo-dettaglio.php?tp=68&det=16&id=63,null,https://en.wikipedia.org/wiki/Oratory%20of%20San%20Lorenzo%2C%20Palermo,https://commons.wikimedia.org/wiki/File:Oratorio_di_San_Lorenzo.JPG,Palermo SIC PA I Circoscrizione Italia 90133 Via dell'Immacolatella it Kalsa ,"religion,churches,interesting_places,catholic_churches",13.36630630493164,38.11680603027344
W279888077,Chiesa di San Gioacchino,null,null,https://it.wikipedia.org/wiki/Chiesa%20di%20San%20Gioacchino%20%28Palermo%29,https://commons.wikimedia.org/wiki/File:San_Gioacchino_all%27Olivella.jpg,Palermo Via San Basilio SIC PA I Circoscrizione Italia 90133 it La Loggia ,"religion,churches,interesting_places,catholic_churches",13.360356330871582,38.11927032470703
W49786257,Chiesa del Santo Spirito,null,null,https://en.wikipedia.org/wiki/Santo%20Spirito%2C%20Palermo,https://commons.wikimedia.org/wiki/File:Vespro22.jpg,Palermo SIC PA III Circoscrizione Italia 90127 it Guadagna ,"religion,churches,interesting_places,catholic_churches",13.362875938415527,38.09967041015625
W279886240,Chiesa di Santa Chiara,null,null,https://it.wikipedia.org/wiki/Chiesa%20di%20Santa%20Chiara%20%28Palermo%29,https://commons.wikimedia.org/wiki/File:Santa_Chiara_-_Facciata.jpg,Palermo Piazza Santa Chiara SIC PA I Circoscrizione Italia 90134 it Albergheria ,"religion,churches,interesting_places,catholic_churches",13.359916687011719,38.1130485534668
N618638079,Madonna dei Rimedi,null,null,https://it.wikipedia.org/wiki/Chiesa%20della%20Madonna%20dei%20Rimedi,https://commons.wikimedia.org/wiki/File:Chiesa_della_Madonna_dei_Rimedi%2C_Palermo.jpg,Palermo Corso Pisani SIC PA IV Circoscrizione Italia 90128 it ,"religion,churches,interesting_places,other_churches",13.350296974182129,38.10981369018555
W143740354,Chiesa di San Matteo al Cassaro,https://turismo.comune.palermo.it/palermo-welcome-luogo-dettaglio.php?tp=68&det=16&id=44,null,https://en.wikipedia.org/wiki/San%20Matteo%20al%20Cassaro,https://commons.wikimedia.org/wiki/File:Chiesa_di_San_Matteo_al_Cassaro_%28Palermo%29_-_Facciata1.JPG,Palermo Vicolo San Matteo SIC PA I Circoscrizione Italia 90133 it La Loggia ,"religion,churches,interesting_places,catholic_churches",13.362513542175293,38.11650848388672
W279887553,Chiesa di San Ranieri e dei Santi Quaranta Martiri Pisani,null,null,https://it.wikipedia.org/wiki/Chiesa%20di%20San%20Ranieri%20e%20dei%20Santi%20Quaranta%20Martiri%20Pisani,https://commons.wikimedia.org/wiki/File:Santi_Quaranta_Martiri.jpg,Palermo Vicolo Tortorici SIC PA I Circoscrizione Italia 90134 it Il Capo ,"religion,churches,interesting_places,other_churches",13.355557441711426,38.1160774230957
W278805151,Chiesa di San Francesco di Paola,http://www.sanfrancescodipaola-palermo.it/,null,https://it.wikipedia.org/wiki/Chiesa%20di%20San%20Francesco%20di%20Paola%20%28Palermo%29,https://commons.wikimedia.org/wiki/File:Chiesa_di_San_Francesco_di_Paola_%28Palermo%29_-_Esterno1.JPG,Palermo Via Sant'Oliva SIC PA VIII Circoscrizione Italia 90139 it ,"religion,churches,interesting_places,catholic_churches",13.352849006652832,38.12184143066406
W279886914,Chiesa di Sant'Orsola,null,null,https://en.wikipedia.org/wiki/Sant%27Orsola%2C%20Palermo,https://commons.wikimedia.org/wiki/File:Chiesa_di_Sant%27Orsola%2C_Palermo_-_facciata.JPG,Palermo Vicolo Chiesa Sant'Orsola SIC PA I Circoscrizione Italia 90140 it Albergheria ,"religion,churches,interesting_places,catholic_churches",13.362969398498535,38.11296844482422
W143736591,Oratorio del Rosario di Santa Cita,https://turismo.comune.palermo.it/palermo-welcome-luogo-dettaglio.php?tp=68&det=16&id=61,null,https://it.wikipedia.org/wiki/Oratorio%20del%20Rosario%20di%20Santa%20Cita,https://commons.wikimedia.org/wiki/File:Oratorio_di_Santa_Cita.JPG,Palermo Via Lampedusa SIC PA I Circoscrizione Italia 90133 it La Loggia ,"religion,churches,interesting_places,catholic_churches",13.36308479309082,38.12077331542969
W279323274,Santissima Trinità alla Zisa,null,null,https://it.wikipedia.org/wiki/Chiesa%20della%20Santissima%20Trinit%C3%A0%20%28Palermo%29,https://commons.wikimedia.org/wiki/File:Capella_della_santissima_Trinit%C3%A0_alla_Zisa.jpg,Palermo Via Giuseppe Whitaker SIC PA V Circoscrizione Italia 90138 it Olivuzza ,"religion,churches,interesting_places,other_churches",13.341064453125,38.11744689941406
W49786081,Chiesa di Sant'Ignazio all'Olivella,null,null,https://en.wikipedia.org/wiki/Sant%27Ignazio%20all%27Olivella,https://commons.wikimedia.org/wiki/File:Chiesa_di_Sant%27Ignazio_all%27Olivella_Palermo.JPG,Palermo SIC PA I Circoscrizione Italia it La Loggia ,"religion,churches,interesting_places,catholic_churches",13.360576629638672,38.120582580566406
W82238244,Convento San Giovanni Battista,null,null,https://it.wikipedia.org/wiki/Chiesa%20di%20San%20Giovanni%20Battista%20%28Baida%29,https://commons.wikimedia.org/wiki/File:KlosterBaida02.jpg,Palermo Via Al Convento di Baida SIC PA IV Circoscrizione Italia 90136 it Baida ,"religion,churches,interesting_places,catholic_churches",13.297074317932129,38.11461639404297
W49750035,Chiesa del Santissimo Salvatore,null,null,https://en.wikipedia.org/wiki/Santissimo%20Salvatore%2C%20Palermo,https://commons.wikimedia.org/wiki/File:Palermo-03.jpg,Palermo Via Santissimo Salvatore SIC PA I Circoscrizione Italia 90134 it Albergheria ,"religion,churches,interesting_places,catholic_churches",13.358744621276855,38.114376068115234
W49863590,Chiesa di Sant'Anna la Misericordia,null,null,https://en.wikipedia.org/wiki/Sant%27Anna%20la%20Misericordia,https://commons.wikimedia.org/wiki/File:Chiesa_di_Sant%27Anna_%28Palermo%29_-_Facciata.JPG,Palermo Monkey SIC PA I Circoscrizione Italia 90133 Piazza Sant'Anna it 19 Kalsa ,"religion,churches,interesting_places,catholic_churches",13.365132331848145,38.1153678894043
W86877286,Chiesa di San Giorgio dei Genovesi,null,null,https://en.wikipedia.org/wiki/San%20Giorgio%20dei%20Genovesi%2C%20Palermo,https://commons.wikimedia.org/wiki/File:Chiesa_San_Giorgio_dei_Genovesi_%28Palermo%29.jpg,Palermo Piazza San Giorgio dei Genovesi SIC PA I Circoscrizione Italia 90133 it La Loggia ,"religion,churches,interesting_places,catholic_churches",13.364429473876953,38.12175369262695
W49790462,Chiesa di Santa Cita,null,null,https://it.wikipedia.org/wiki/Chiesa%20di%20Santa%20Cita,https://commons.wikimedia.org/wiki/File:Palermo-Santa-Cita-bjs2007-01.jpg,Palermo Via Valverde SIC PA I Circoscrizione Italia 90133 it La Loggia ,"religion,churches,interesting_places,catholic_churches",13.363541603088379,38.12100601196289
W299841307,Chiesa di San Giuseppe Cottolengo,null,null,https://it.wikipedia.org/wiki/Chiesa%20di%20San%20Giuseppe%20Cottolengo%20%28Palermo%29,https://commons.wikimedia.org/wiki/File:San_Giuseppe_Cottolengo.jpg,Palermo Via Giovanni Zappalà Art Studio Tattoo di Crapitti Salvatore SIC PA VIII Circoscrizione Italia 90144 it 11 ,"religion,churches,interesting_places,other_churches",13.335026741027832,38.1391487121582
W566758781,Chiesa del S. Angelo Custode,null,null,https://it.wikipedia.org/wiki/Chiesa%20dell%27Angelo%20Custode%20%28Palermo%29,https://commons.wikimedia.org/wiki/File:Chiesa_Angelo_Custode.jpg,Palermo Via Matteo Bonello SIC PA I Circoscrizione Italia 90134 it Il Capo ,"religion,churches,interesting_places,other_churches",13.353814125061035,38.11598205566406
W233501070,Oratorio del Rosario San Domenico,null,null,https://en.wikipedia.org/wiki/Oratory%20of%20Rosario%20di%20San%20Domenico,https://commons.wikimedia.org/wiki/File:Palermo-Oratorio-del-Rosario-bjs-01.jpg,Palermo Via dei Bambinai SIC PA I Circoscrizione Italia 90133 it La Loggia ,"religion,churches,interesting_places,catholic_churches",13.363946914672852,38.11957931518555
W557493834,Chiesa di Sant'Agata alla Guilla,null,null,https://it.wikipedia.org/wiki/Chiesa%20di%20Sant%27Agata%20alla%20Guilla,https://commons.wikimedia.org/wiki/File:Cr%C3%A8sia_di_Sant%27%C3%80gata.jpg,Palermo Via Sant'Agata alla Guilla SIC PA I Circoscrizione Italia 90134 it Il Capo ,"religion,churches,interesting_places,catholic_churches",13.356504440307617,38.115623474121094
W49864836,Chiesa di Sant'Antonio abate,null,null,https://it.wikipedia.org/wiki/Chiesa%20di%20Sant%27Antonio%20Abate%20%28Palermo%29,https://commons.wikimedia.org/wiki/File:Chiesa_di_Sant%27Antonio_Abate_%28Palermo%29_-_facciata2.JPG,Palermo SIC PA I Circoscrizione Italia Discesa Vicerè Caracciolo 90133 it La Loggia ,"religion,churches,interesting_places,catholic_churches",13.363645553588867,38.11711120605469
W424559529,Chiesa di San Giuseppe dei Teatini,null,null,https://en.wikipedia.org/wiki/San%20Giuseppe%20dei%20Teatini,https://commons.wikimedia.org/wiki/File:Palermo-San-Giuseppe-dei-Teatini-bjs2007-01.jpg,Palermo Via Maqueda Palazzo Pretorio SIC PA I Circoscrizione Italia 90140 it 1 Kalsa ,"religion,churches,interesting_places,catholic_churches",13.361433982849121,38.11527633666992
W279884822,Madonna dell'Itria dei Cocchieri,null,null,https://it.wikipedia.org/wiki/Chiesa%20di%20Santa%20Maria%20dell%27Itria%20alla%20Kalsa,https://commons.wikimedia.org/wiki/File:Madonna_dell%27ittria_dei_Cocchieri.jpg,Palermo SIC PA I Circoscrizione Italia Piazza Dei Cocchieri it Kalsa ,"religion,churches,interesting_places,other_churches",13.367465019226074,38.11542892456055
W49786083,Santa Croce,http://www.chiesaanglicanapalermo.it/,null,https://it.wikipedia.org/wiki/Chiesa%20anglicana%20%28Palermo%29,https://commons.wikimedia.org/wiki/File:Palermo-Chiesa-Anglicana-bjs2007-01.jpg,Palermo Via Mariano Stabile Mercure Palermo Centro SIC PA VIII Circoscrizione Italia 90139 it 112 ,"religion,churches,interesting_places,other_churches",13.359947204589844,38.12369155883789
W143735554,Chiesa dell'Immacolata Concezione,null,null,https://en.wikipedia.org/wiki/Immacolata%20Concezione%20al%20Capo,https://commons.wikimedia.org/wiki/File:Chiesa_dell%27Immacolata_Concezione_al_Capo_%28Palermo%29_-_Facciata.JPG,Palermo Vicolo dell'Abbadia le Angeliche SIC PA I Circoscrizione Italia 90134 it 10-14 Il Capo ,"religion,churches,interesting_places,other_churches",13.354097366333008,38.11823654174805
W49772131,San Nicolò da Tolentino,null,null,https://it.wikipedia.org/wiki/Chiesa%20di%20San%20Nicola%20da%20Tolentino%20%28Palermo%29,https://commons.wikimedia.org/wiki/File:Chiesa_di_San_Nicol%C3%B2_da_Tolentino_%28Palermo%29_-_facciata1.JPG,Palermo Vicolo Meschita SIC PA I Circoscrizione Italia 90140 it Kalsa ,"religion,churches,interesting_places,catholic_churches",13.363088607788086,38.11388397216797
W49772132,Chiesa di Santa Maria della Catena,null,null,https://en.wikipedia.org/wiki/Santa%20Maria%20della%20Catena%2C%20Palermo,https://commons.wikimedia.org/wiki/File:Palermo-12.jpg,Palermo Corso Vittorio Emanuele SIC PA I Circoscrizione Italia 90133 it Kalsa ,"religion,churches,interesting_places,catholic_churches",13.369518280029297,38.119171142578125
W49786667,Chiesa dei Santi Pietro e Paolo,null,null,https://it.wikipedia.org/wiki/Chiesa%20dei%20Santi%20Pietro%20e%20Paolo%20%28Palermo%29,https://commons.wikimedia.org/wiki/File:Palermo-AP-p1070708.jpg,Palermo Via Villaermosa Villa Ermosa Cafe Bistrot SIC PA I Circoscrizione Italia 90132 it 25 La Loggia ,"religion,churches,interesting_places,catholic_churches",13.359648704528809,38.12242126464844
W49789495,Chiesa di San Francesco Saverio,null,null,https://en.wikipedia.org/wiki/San%20Francesco%20Saverio%2C%20Palermo,https://commons.wikimedia.org/wiki/File:St._Francis_Xavier_church.JPG,Palermo Via Andrea Vesalio SIC PA I Circoscrizione Italia 90127 it Albergheria ,"religion,churches,interesting_places,catholic_churches",13.358450889587402,38.10948944091797
W49773340,Santa Maria dei Miracoli,null,null,https://de.wikipedia.org/wiki/Santa%20Maria%20dei%20Miracoli%20%28Palermo%29,https://commons.wikimedia.org/wiki/File:Santa_Maria_dei_Miracoli_-_Palermo_-_Italy_2015.JPG,Palermo Via Quattro Aprile SIC PA I Circoscrizione Italia 90133 Piazza Marina it Kalsa ,"religion,churches,interesting_places,catholic_churches",13.368647575378418,38.11674880981445
W49772133,Santa Maria Porto Salvo,null,null,https://it.wikipedia.org/wiki/Chiesa%20di%20Santa%20Maria%20di%20Porto%20Salvo,https://commons.wikimedia.org/wiki/File:Santa_Maria_di_Portosalvo.jpg,Palermo Corso Vittorio Emanuele SIC PA I Circoscrizione Italia 90133 it Kalsa ,"religion,churches,interesting_places,catholic_churches",13.367843627929688,38.11842727661133
N4589887503,Santa Maria di Gesù al Capo,null,null,https://it.wikipedia.org/wiki/Santa%20Maria%20di%20Ges%C3%B9%20%28Palermo%29,https://commons.wikimedia.org/wiki/File:PALERMO_S.Maria_di_Ges.JPG,Palermo SIC PA Italia Santa Maria di Gesù 90124 it ,"religion,churches,interesting_places,other_churches",13.379697799682617,38.08328628540039
W80979177,Santa Maria di Gesù al Capo,null,null,https://it.wikipedia.org/wiki/Santa%20Maria%20di%20Ges%C3%B9%20%28Palermo%29,https://commons.wikimedia.org/wiki/File:PALERMO_S.Maria_di_Ges.JPG,Palermo SIC PA III Circoscrizione Italia 90124 it Chiavelli ,"religion,churches,interesting_places,other_churches",13.378950119018555,38.082061767578125
W80840224,San Ciro,null,null,https://it.wikipedia.org/wiki/Chiesa%20di%20San%20Ciro%20%28Palermo%29,https://commons.wikimedia.org/wiki/File:Chiesa_di_san_ciro.JPG,Palermo Viale Regione Siciliana Sud Est SIC PA II Circoscrizione Italia 90124 it Settecannoli ,"religion,churches,interesting_places,catholic_churches",13.385920524597168,38.0884895324707
W747164879,Chiesa di Santa Maria della Pace,null,null,https://it.wikipedia.org/wiki/Chiesa%20di%20Santa%20Maria%20della%20Pace%20%28Palermo%29,https://commons.wikimedia.org/wiki/File:Snow_in_Palermo_9.jpg,Palermo Piazza Cappuccini SIC PA IV Circoscrizione Italia 90129 it ,"religion,churches,interesting_places,catholic_churches",13.339482307434082,38.11172866821289
W86886700,Santa Maria La nuova,null,null,https://it.wikipedia.org/wiki/Chiesa%20di%20Santa%20Maria%20la%20Nova%20%28Palermo%29,https://commons.wikimedia.org/wiki/File:Santa_Maria_la_Nova%2C_Palermo.jpg,Palermo SIC PA I Circoscrizione Italia Piazza San Giacomo it La Loggia ,"religion,churches,interesting_places,catholic_churches",13.365371704101562,38.11924743652344
W86870899,Santa Maddalena,null,null,https://it.wikipedia.org/wiki/Chiesa%20di%20Santa%20Maria%20Maddalena%20%28Palermo%29,https://commons.wikimedia.org/wiki/File:Santa_Maria_Maddalena_facciata.jpg,"Palermo Corso Vittorio Emanuele Caserma ""Dalla Chiesa - Calatafimi"" SIC PA I Circoscrizione Italia 90134 it 475 Albergheria ","religion,churches,interesting_places,catholic_churches",13.352792739868164,38.11259078979492
W279885755,Oratorio del Carminello,null,null,https://it.wikipedia.org/wiki/Oratorio%20del%20Carminello,https://commons.wikimedia.org/wiki/File:Oratorio_del_Carminello.jpg,Palermo Via Chiappara al Carmine SIC PA I Circoscrizione Italia 90140 it Albergheria ,"religion,churches,interesting_places,catholic_churches",13.361703872680664,38.10999298095703
W49773335,Chiesa del Carmine Maggiore,http://carminemaggiorepa.blogspot.it/,null,https://it.wikipedia.org/wiki/Chiesa%20del%20Carmine%20Maggiore,https://commons.wikimedia.org/wiki/File:Cr%C3%A8sia_di_lu_C%C3%A0rminu_-_c%C3%B9pula.jpg,Palermo Vicolo del Bosco SIC PA I Circoscrizione Italia 90140 it Albergheria ,"religion,churches,interesting_places,catholic_churches",13.361451148986816,38.111087799072266
W49769029,"La Magione, Palermo",http://www.basilicalamagione.diocesipa.it;http://basilicalamagione.diocesipa.it/,null,https://en.wikipedia.org/wiki/La%20Magione%2C%20Palermo,https://commons.wikimedia.org/wiki/File:Magione_-_facade.jpg,Palermo Via Magione Parrocchia Santissima Trinità - Basilica la Magione SIC PA I Circoscrizione Italia 90140 it 44 Kalsa ,"religion,churches,interesting_places,catholic_churches",13.368987083435059,38.11362075805664
W86873788,Chiesa di Santa Ninfa dei Crociferi,null,null,https://en.wikipedia.org/wiki/Santa%20Ninfa%20dei%20Crociferi,https://commons.wikimedia.org/wiki/File:Palermo-Sicily-Italy_-_Creative_Commons_by_gnuckx_%283492679912%29.jpg,Palermo Via del Celso Residenza Nuvole SIC PA I Circoscrizione Italia 90134 it 14 Il Capo ,"religion,churches,interesting_places,catholic_churches",13.360505104064941,38.11663055419922
W49754802,Chiesa di San Domenico,http://www.domenicani-palermo.it/,null,https://en.wikipedia.org/wiki/San%20Domenico%2C%20Palermo,https://commons.wikimedia.org/wiki/File:Palermo-San-Domenico-bjs2007-01.jpg,Palermo Via Giovanni Meli SIC PA I Circoscrizione Italia 90133 Piazza San Domenico it La Loggia ,"religion,churches,interesting_places,catholic_churches",13.36351490020752,38.11907196044922
Q1471263,chiesa di Santa Maria degli Agonizzanti,null,null,https://it.wikipedia.org/wiki/Chiesa%20di%20Santa%20Maria%20degli%20Agonizzanti,https://commons.wikimedia.org/wiki/File:Chiesa_di_S._Maria_degli_Agonizzanti_%28Palermo%29_2.JPG,Palermo Via Giovanni da Procida SIC PA I Circoscrizione Italia 90140 it Kalsa ,"religion,churches,interesting_places,other_churches",13.364083290100098,38.11466598510742
Q25409177,Sant'Eulalia dei Catalani,null,null,https://en.wikipedia.org/wiki/Sant%27Eulalia%20dei%20Catalani,https://commons.wikimedia.org/wiki/File:Cr%C3%A8sia_di_Sant%27Eulalia_d%C3%BB_Catalani.jpg,Palermo Via Giacalone SIC PA I Circoscrizione Italia 90133 it La Loggia ,"religion,churches,interesting_places,other_churches",13.359999656677246,38.119998931884766
Q72397933,Oratorio della Carità,null,null,https://it.wikipedia.org/wiki/Oratorio%20della%20Carit%C3%A0%20%28Palermo%29,https://commons.wikimedia.org/wiki/File:Oratorio_della_Carit%C3%A0_%28Palermo%29_16_07_2019_12.jpg,Palermo Via Maqueda SIC PA I Circoscrizione Italia 90140 it 239 Il Capo ,"religion,churches,interesting_places,other_churches",13.360860824584961,38.11642837524414
Q1072497,San Giovanni alla Guilla,null,null,https://it.wikipedia.org/wiki/Chiesa%20di%20San%20Giovanni%20alla%20Guilla,https://commons.wikimedia.org/wiki/File:San_Giovanni_alla_Guilla.jpg,Palermo Via Beati Paoli SIC PA I Circoscrizione Italia 90134 it Il Capo ,"religion,churches,interesting_places,other_churches",13.356027603149414,38.116111755371094
Q2223132,Santa Maria di Monte Oliveto,null,null,https://it.wikipedia.org/wiki/Chiesa%20della%20Madonna%20di%20Monte%20Oliveto,https://commons.wikimedia.org/wiki/File:Chiesa_della_Madonna_del_Monte_Oliveto_%28Palermo%29_-_facciata2.JPG,Palermo Via dell'Incoronazione SIC PA I Circoscrizione Italia 90134 it Il Capo ,"religion,churches,interesting_places,other_churches",13.356194496154785,38.11483383178711
Q2028378,Oratorio di Sant'Onofrio,null,null,https://de.wikipedia.org/wiki/Oratorio%20di%20Sant%E2%80%99Onofrio,https://commons.wikimedia.org/wiki/File:Oratorio_San_Onofrio_Palermo.jpg,Palermo SIC PA I Circoscrizione Italia 90134 it Il Capo ,"religion,churches,interesting_places,other_churches",13.358288764953613,38.11736297607422
Q2222845,Santa Cristina la Vetere,null,null,https://it.wikipedia.org/wiki/Chiesa%20di%20Santa%20Cristina%20la%20Vetere,https://commons.wikimedia.org/wiki/File:Santa_Cristina_la_Vetere_PA.jpg,Palermo Cortile Dei Pellegrini SIC PA I Circoscrizione Italia 90134 it Il Capo ,"religion,churches,interesting_places,other_churches",13.355286598205566,38.11492156982422
Q1034537,Santa Maria l'Incoronata,null,null,https://it.wikipedia.org/wiki/Cappella%20dell%27Incoronata,https://commons.wikimedia.org/wiki/File:Cattedrale_PA_esterni_04.JPG,Palermo Via Matteo Bonello Museo Diocesano di Palermo (MUdiPA) SIC PA I Circoscrizione Italia 90100 it 2 Il Capo ,"religion,churches,interesting_places,other_churches",13.355295181274414,38.114444732666016
Q1072500,chiesa di San Gregorio Papa,null,null,https://it.wikipedia.org/wiki/Chiesa%20di%20San%20Gregorio%20Papa%20%28Palermo%29,https://commons.wikimedia.org/wiki/File:Chiesa_di_San_Gregorio_%28Palermo%29_-_esterno.JPG,Palermo Via Porta Carini SIC PA I Circoscrizione Italia 90134 it 56 Il Capo ,"religion,churches,interesting_places,other_churches",13.354019165039062,38.118736267089844
Q2028370,Oratorio di Santa Caterina,null,null,https://it.wikipedia.org/wiki/Oratorio%20di%20Santa%20Caterina%20%28Palermo%29,https://commons.wikimedia.org/wiki/File:Oratorio_Santa_Caterina_esterno.jpg,Palermo Piazzetta Monteleone SIC PA I Circoscrizione Italia 90133 it La Loggia ,"religion,churches,interesting_places,other_churches",13.360755920410156,38.12025833129883
Q25410141,oratorio dei Santi Pietro e Paolo,null,null,https://it.wikipedia.org/wiki/Oratorio%20dei%20Santi%20Pietro%20e%20Paolo%20%28Palermo%29,https://commons.wikimedia.org/wiki/File:Oratorio_dei_Santi_Pietro_e_Paolo_%28Palermo%29_15_07_2019.jpg,"Palermo Corso Vittorio Emanuele Caserma ""Dalla Chiesa - Calatafimi"" SIC PA I Circoscrizione Italia 90134 it 475 Albergheria ","religion,churches,interesting_places,other_churches",13.354911804199219,38.11412811279297
Q62008179,Chiesa di San Ippolito,null,null,https://it.wikipedia.org/wiki/Chiesa%20di%20Sant%27Ippolito%20%28Palermo%29,https://commons.wikimedia.org/wiki/File:Sant%27Ippolito_-_Facciata.jpg,Palermo Via Giovanni Battista Pagano SIC PA I Circoscrizione Italia 90138 it Il Capo ,"religion,churches,interesting_places,other_churches",13.353888511657715,38.11861038208008
Q924202,Oratorio di Santo Stefano Protomartire,null,null,https://it.wikipedia.org/wiki/Oratorio%20di%20Santo%20Stefano%20protomartire,https://commons.wikimedia.org/wiki/File:Oratorio_Santo_Stefano.jpg,Palermo SIC PA I Circoscrizione Italia Piazza Del Monte it Il Capo ,"religion,churches,interesting_places,other_churches",13.357098579406738,38.116886138916016
Q1072486,Santa Rosalia e Quattro Santi Coronati,null,null,https://it.wikipedia.org/wiki/Chiesa%20di%20Santa%20Rosalia%20%28Palermo%29,https://commons.wikimedia.org/wiki/File:Santi_Quattro_Coronati_Palermo.jpg,Palermo Via Quattro Coronati SIC PA I Circoscrizione Italia 90138 it Il Capo ,"religion,churches,interesting_places,other_churches",13.353504180908203,38.11691665649414
Q24260454,chiesa di Sant'Antonio di Padova,null,null,https://it.wikipedia.org/wiki/Chiesa%20di%20Sant%27Antonio%20di%20Padova%20%28Palermo%29,https://commons.wikimedia.org/wiki/File:PA_SAP_17_04_2018.jpg,Palermo Via Abramo Lincoln Orto Botanico SIC PA I Circoscrizione Italia 90133 it 2 Kalsa ,"religion,churches,interesting_places,other_churches",13.373473167419434,38.11339569091797
Q2028360,Oratorio di San Giuseppe dei Falegnami,null,null,https://it.wikipedia.org/wiki/Oratorio%20di%20San%20Giuseppe%20dei%20Falegnami,https://commons.wikimedia.org/wiki/File:Oratorio_San_Giuseppe_Falegnami.jpg,Palermo Via Giuseppe d'Alessi SIC PA I Circoscrizione Italia 90140 it Albergheria ,"religion,churches,interesting_places,other_churches",13.361271858215332,38.11483383178711
Q2223094,Santa Maria della Mercede,null,null,https://it.wikipedia.org/wiki/Chiesa%20di%20Santa%20Maria%20della%20Mercede%20%28Palermo%29,https://commons.wikimedia.org/wiki/File:Chiesa_di_Santa_Maria_della_Mercede_al_Capo_%28Palermo%29.JPG,Palermo Via Cappuccinelle SIC PA I Circoscrizione Italia 90134 it Il Capo ,"religion,churches,interesting_places,other_churches",13.354372024536133,38.117313385009766
Q28669520,Madonna Assunta,null,null,https://it.wikipedia.org/wiki/Chiesa%20dell%27Assunta%20%28Palermo%29,https://commons.wikimedia.org/wiki/File:CA_PA_14_09_2018_03.jpg,Palermo Via Maqueda SIC PA I Circoscrizione Italia 90140 it Kalsa ,"religion,churches,interesting_places,other_churches",13.364278793334961,38.111698150634766
Q28669739,oratorio di Santa Maria delle Grazie,null,null,https://it.wikipedia.org/wiki/Oratorio%20di%20Santa%20Maria%20delle%20Grazie%20%28Palermo%29,https://commons.wikimedia.org/wiki/File:Oratorio_del_Sabato.jpg,Palermo Vicolo Meschita SIC PA I Circoscrizione Italia 90140 it Kalsa ,"religion,churches,interesting_places,other_churches",13.36289119720459,38.11405944824219
Q30880755,San Nicolò all'Albergheria,null,null,https://it.wikipedia.org/wiki/Chiesa%20di%20San%20Nicol%C3%B2%20all%27Albergheria,https://commons.wikimedia.org/wiki/File:Turri_di_San_Nicola.jpg,Palermo Via San Nicolò All'Albergheria SIC PA I Circoscrizione Italia 90134 it Albergheria ,"religion,churches,interesting_places,other_churches",13.35984992980957,38.11157989501953
Q45382192,chiesa di Santa Maria dei Miracoli,null,null,https://it.wikipedia.org/wiki/Chiesa%20di%20Santa%20Maria%20dei%20Miracoli%20%28Palermo%29,https://commons.wikimedia.org/wiki/File:Santa_Maria_dei_Miracoli_-_Palermo_-_Italy_2015.JPG,Palermo Via Quattro Aprile SIC PA I Circoscrizione Italia 90133 Piazza Marina it Kalsa ,"religion,churches,interesting_places,other_churches",13.368796348571777,38.11680603027344
Q2028355,Oratorio di San Filippo,null,null,https://it.wikipedia.org/wiki/Oratorio%20di%20San%20Filippo%20%28Palermo%29,https://commons.wikimedia.org/wiki/File:Oratorio_San_Filippo_Neri.jpg,Palermo SIC PA I Circoscrizione Italia it La Loggia ,"religion,churches,interesting_places,other_churches",13.360555648803711,38.12038803100586
Q2028364,Oratorio di San Mercurio,null,null,https://it.wikipedia.org/wiki/Oratorio%20di%20San%20Mercurio,https://commons.wikimedia.org/wiki/File:Oratorio_di_San_Mercurio.jpg,Palermo SIC PA I Circoscrizione Italia Cortile San Giovanni degli Eremiti it Albergheria ,"religion,churches,interesting_places,other_churches",13.354241371154785,38.109779357910156
W86882287,San Mattia e Noviziato dei Crociferi,null,null,null,https://commons.wikimedia.org/wiki/File:San_Mattia_ai_Crociferi%2C_Palermo.jpg,Palermo Via Torremuzza Teatro Ditirammu SIC PA I Circoscrizione Italia 90133 it 6 Kalsa ,"religion,churches,interesting_places,catholic_churches",13.372879028320312,38.11675262451172
W279887578,Chiesa del Santissimo Crocifisso all'Albergheria,null,null,https://it.wikipedia.org/wiki/Chiesa%20del%20Santissimo%20Crocifisso%20%28Palermo%29,null,Palermo Via Albergheria SIC PA I Circoscrizione Italia 90134 it Albergheria ,"religion,architecture,historic_architecture,churches,interesting_places,destroyed_objects,other_churches",13.3575439453125,38.109745025634766
W81202236,Sant'Agata la Pedata,null,null,https://de.wikipedia.org/wiki/Chiesa%20Sant%E2%80%99Agata%20da%20Pedata,null,Palermo Via Giuseppe Patricolo SIC PA III Circoscrizione Italia 90127 it ,"religion,churches,interesting_places,catholic_churches",13.361893653869629,38.107967376708984
W86889402,San Carlo Borromeo,null,null,https://it.wikipedia.org/wiki/Chiesa%20di%20San%20Carlo%20dei%20Milanesi,null,Palermo Vicolo San Carlo SIC PA I Circoscrizione Italia 90133 it Kalsa ,"religion,churches,interesting_places,catholic_churches",13.366833686828613,38.11441421508789
Q30887637,chiesa di San Demetrio,null,null,https://it.wikipedia.org/wiki/Chiesa%20di%20San%20Demetrio%20%28Palermo%29,null,Palermo Piazza San Giovanni Decollato SIC PA I Circoscrizione Italia Piazza della Vittoria it Albergheria ,"religion,churches,interesting_places,other_churches",13.35634994506836,38.112548828125
Q97924237,Santa Maria della Speranza,null,null,https://de.wikipedia.org/wiki/Santa%20Maria%20della%20Speranza,null,Palermo SIC PA IV Circoscrizione Italia Via Emanuela Loi 90129 it Altarello ,"religion,churches,interesting_places,other_churches",13.34070873260498,38.1032600402832
Q55386250,cappella Palatina,null,null,null,null,Palermo Piazza Indipendenza SIC PA I Circoscrizione Italia 90128 it Albergheria ,"religion,churches,interesting_places,other_churches",13.351582527160645,38.110877990722656
W153253769,Sant'Antonio,null,null,null,null,Monreale SIC PA Italia 90046 Via Roma it ,"religion,churches,interesting_places,catholic_churches",13.290661811828613,38.08203125
W86870867,San Giacomo dei Militari,null,null,null,null,"Palermo Corso Vittorio Emanuele Caserma ""Dalla Chiesa - Calatafimi"" SIC PA I Circoscrizione Italia 90134 it 475 Albergheria ","religion,churches,interesting_places,catholic_churches",13.35387897491455,38.113243103027344
W86870875,Cappella della Madonna della Soledad,null,null,null,null,Palermo Piazza San Giovanni Decollato SIC PA I Circoscrizione Italia Piazza della Vittoria it Albergheria ,"religion,churches,interesting_places,catholic_churches",13.356372833251953,38.1125373840332
W35582356,Sant'Agata,null,null,null,null,Via Arrigo Tenente Villabate SIC PA Italia 90039 it Pomara ,"religion,churches,interesting_places,catholic_churches",13.441637992858887,38.076881408691406
W80610891,Santissimo Crocifisso,null,null,null,null,Via Messina Marine Villabate SIC PA II Circoscrizione Italia 90121 it ,"religion,churches,interesting_places,catholic_churches",13.429484367370605,38.09584426879883
W86873789,Chiesa della Pinta,null,null,null,null,Palermo SIC PA I Circoscrizione Italia it Albergheria ,"religion,churches,interesting_places,catholic_churches",13.353975296020508,38.11009979248047
W82636568,Santa Maria di Monserrato,null,null,null,null,Palermo Via della Libertà Parco Piersanti Mattarella SIC PA VIII Circoscrizione Italia 90141 it 63 ,"religion,churches,interesting_places,catholic_churches",13.35245132446289,38.130741119384766
W97225599,San Michele Arcangelo,null,null,null,null,Palermo Via Enrico Onufrio SIC PA VIII Circoscrizione Italia 90144 it ,"religion,churches,interesting_places,catholic_churches",13.342306137084961,38.134620666503906
W87015592,Chiesa dei Santi Cosma e Damiano,null,null,null,null,Palermo Piazza Santi Cosma e Damiano SIC PA VII Circoscrizione Italia 90148 it ,"religion,churches,interesting_places,catholic_churches",13.27607536315918,38.19820785522461
W87015606,Maria Santissima Assunta,null,null,null,null,Palermo Viale Italia SIC PA VII Circoscrizione Italia 90151 it Valdesi ,"religion,churches,interesting_places,catholic_churches",13.330840110778809,38.1954460144043
W87015598,San Girolamo,null,null,null,null,Palermo Via Piano di Gallo SIC PA VII Circoscrizione Italia 90151 it Valdesi ,"religion,churches,interesting_places,catholic_churches",13.327580451965332,38.20780944824219
W80924196,Santissimo Salvatore,null,null,null,null,Palermo Corso dei Mille SIC PA II Circoscrizione Italia 90123 it Settecannoli ,"religion,churches,interesting_places,catholic_churches",13.387862205505371,38.0991325378418
W80924193,San Sergio,null,null,null,null,Palermo SIC PA II Circoscrizione Italia 90121 it Romagnolo ,"religion,churches,interesting_places,catholic_churches",13.399283409118652,38.09667205810547
N5613679824,Dio con Noi,http://www.chiesadioconnoi.org,null,null,null,Palermo Via Fichidindia Dio con Noi SIC PA II Circoscrizione Italia 90124 it 45a Settecannoli ,"religion,churches,interesting_places,other_churches",13.380508422851562,38.09366989135742
W48009587,Chiesa del Sacro Cuore,null,null,null,null,Villabate SIC PA Italia 90039 it Pomara ,"religion,churches,interesting_places,catholic_churches",13.436071395874023,38.079959869384766
W49772130,Sant'Antonio di Padova,null,null,null,null,Palermo Corso Tukory Al Negretto SIC PA I Circoscrizione Italia 90127 it 35 Albergheria ,"religion,churches,interesting_places,catholic_churches",13.364592552185059,38.1097297668457
W86886724,Sant'Eulalia dei catalani,null,null,null,null,Palermo Vicolo della Rosa Bianca SIC PA I Circoscrizione Italia 90133 it La Loggia ,"religion,churches,interesting_places,catholic_churches",13.364079475402832,38.1179313659668
W71809142,Beata Vergine del Carmelo,null,null,null,null,Misilmeri SIC PA Italia 90036 it ,"religion,churches,interesting_places,catholic_churches",13.45884895324707,38.069454193115234
W81132103,San Raffaele Arcangelo,null,null,null,null,Palermo SIC PA IV Circoscrizione Italia 90128 it ,"religion,churches,interesting_places,catholic_churches",13.350849151611328,38.09767150878906
W926581675,Chiesa di Santa Maria della Grotta al Cassaro,null,null,null,null,Palermo Via delle Scuole SIC PA I Circoscrizione Italia 90134 it Albergheria ,"religion,churches,interesting_places,catholic_churches",13.357598304748535,38.11434555053711
W81301748,Parrocchia Sacra Famiglia,null,null,null,null,Palermo SIC PA II Circoscrizione Italia 90140 it ,"religion,churches,interesting_places,catholic_churches",13.371076583862305,38.10970687866211
W223122620,Oratori di Porto e Riporto,null,null,null,null,Palermo SIC PA I Circoscrizione Italia 90133 Via Merlo it 2 Kalsa ,"religion,churches,interesting_places,catholic_churches",13.367403030395508,38.116878509521484
W86886711,Sant'Andrea,null,null,null,null,Palermo Via Ambra SIC PA I Circoscrizione Italia 90133 it La Loggia ,"religion,churches,interesting_places,catholic_churches",13.363821983337402,38.11840057373047
W86886694,Santissimo Sepolcro,null,null,null,null,Palermo Via Coltellieri SIC PA I Circoscrizione Italia 90133 it La Loggia ,"religion,churches,interesting_places,catholic_churches",13.363443374633789,38.11826705932617
W49790463,San Giovanni Bosco,null,null,null,null,Palermo Via Amedeo d'Aosta SIC PA II Circoscrizione Italia 90123 it Romagnolo ,"religion,churches,interesting_places,catholic_churches",13.388167381286621,38.10533905029297
W81411194,Sant'Oliva,null,null,null,null,Palermo Corso Calatafimi SIC PA IV Circoscrizione Italia 90131 it Altarello ,"religion,churches,interesting_places,catholic_churches",13.328254699707031,38.10190963745117
W71805652,Annunciazione del Signore,null,null,null,null,Palermo Via Pietro Donato SIC PA IV Circoscrizione Italia 90129 it Pagliarelli ,"religion,churches,interesting_places,catholic_churches",13.345033645629883,38.09394454956055
W153255391,Chiesa di San Castrense,null,null,null,null,Via Campo Sportivo Monreale SIC PA Italia 90046 it ,"religion,churches,interesting_places,catholic_churches",13.287590980529785,38.080322265625
W48849513,Maria Santissima Mediatrice,null,null,null,null,Palermo Via Raffaele La Valle SIC PA IV Circoscrizione Italia 90129 it 1 Pagliarelli ,"religion,churches,interesting_places,catholic_churches",13.334041595458984,38.101661682128906
W97225598,Maria Santissima Regina Pacis,null,null,null,null,Palermo Via Bainsizza SIC PA VIII Circoscrizione Italia 90144 it ,"religion,churches,interesting_places,catholic_churches",13.341422080993652,38.14250564575195
W87015595,San Giovanni Battista,null,null,null,null,Palermo Piazza Tommaso Natale SIC PA VII Circoscrizione Italia 90147 it ,"religion,churches,interesting_places,catholic_churches",13.287863731384277,38.18891525268555
W86886706,San Sebastiano,null,null,null,null,Palermo Piazza Fonderia Casa di Cure Triolo-Zancla SIC PA I Circoscrizione Italia 90133 it 23 La Loggia ,"religion,churches,interesting_places,catholic_churches",13.3662748336792,38.119651794433594
W82636565,Santa Lucia Vergine Maria,null,null,null,null,Palermo Via Enrico Albanese SIC PA VIII Circoscrizione Italia 90139 it Acquasanta ,"religion,churches,interesting_places,catholic_churches",13.358569145202637,38.13120651245117
W86886719,Chiesa della Madonna del Lume,null,null,null,null,Palermo Via Cassari SIC PA I Circoscrizione Italia 90133 it La Loggia ,"religion,churches,interesting_places,catholic_churches",13.365718841552734,38.11841583251953
W48009589,Chiesa di San Giuseppe,null,null,null,null,Via Giovanna D'Arco Villabate SIC PA Italia 90039 it Pomara ,"religion,churches,interesting_places,catholic_churches",13.448780059814453,38.0766716003418
W97225073,Maria Santissima Madre della Misericordia,null,null,null,null,Palermo Via Empedocle Restivo SIC PA VIII Circoscrizione Italia 90144 it ,"religion,churches,interesting_places,catholic_churches",13.337226867675781,38.14318084716797
W80922069,Santissimo Crocifisso,null,null,null,null,Palermo Via Ciaculli SIC PA II Circoscrizione Italia 90124 it Settecannoli ,"religion,churches,interesting_places,catholic_churches",13.404402732849121,38.07667541503906
W48009588,Chiesa San Agatone Papa,null,null,null,null,Villabate SIC PA II Circoscrizione Italia 90039 it ,"religion,churches,interesting_places,catholic_churches",13.433939933776855,38.08529281616211
W87015602,Santa Maria degli Angeli,null,null,null,null,Palermo SIC PA VII Circoscrizione Italia 90151 it Valdesi ,"religion,churches,interesting_places,catholic_churches",13.31128978729248,38.196327209472656
W365921762,,null,null,null,null,Palermo Via San Francesco di Sales SIC PA III Circoscrizione Italia 90125 it ,"religion,churches,interesting_places,catholic_churches",13.345617294311523,38.08537673950195
W34350144,,null,null,null,null,Palermo SIC PA III Circoscrizione Italia 90127 it Guadagna ,"religion,churches,interesting_places,catholic_churches",13.361762046813965,38.10377502441406
W81370306,,null,null,null,null,Palermo Calzedonia SIC PA IV Circoscrizione Italia Corso Calatafimi 90129 it 362 Altarello ,"religion,churches,interesting_places,catholic_churches",13.335667610168457,38.10503005981445
W81943373,,null,null,null,null,Palermo Via Giuseppe Pollaci Buffetti SIC PA IV Circoscrizione Italia 90135 it 40 Altarello ,"religion,churches,interesting_places,catholic_churches",13.329340934753418,38.10496520996094
N1816345209,museo internazionale delle marionette Antonio Pasqualino,http://www.museomarionettepalermo.it/;http://museomarionettepalermo.it/,null,https://it.wikipedia.org/wiki/Museo%20internazionale%20delle%20marionette%20Antonio%20Pasqualino,https://commons.wikimedia.org/wiki/File:Museo_delle_Marionette.jpg,Palermo Piazzetta Antonio Pasqualino museo internazionale delle marionette Antonio Pasqualino SIC PA I Circoscrizione Italia 90133 it 5 Kalsa ,"cultural,museums,interesting_places,other_museums",13.370555877685547,38.11853790283203
N6385323217,Museo Diocesano di Monreale,http://www.museodiocesanomonreale.it/;http://www.museodiocesanomonreale.it,null,https://it.wikipedia.org/wiki/Museo%20diocesano%20%28Monreale%29,https://commons.wikimedia.org/wiki/File:Museo_Diocesano_di_Monreale_%28sala_San_Placido%29.jpg,Via Arcivescovado Monreale Museo Diocesano di Monreale SIC PA Italia 90046 it 2 ,"cultural,museums,interesting_places,art_galleries",13.292780876159668,38.081993103027344
N4056938289,Museo Diocesano di Palermo (MUdiPA),http://www.museodiocesanopa.it,null,https://en.wikipedia.org/wiki/Diocesan%20Museum%20of%20Palermo,https://commons.wikimedia.org/wiki/File:Guglielmo_Borremans_-_Nativity_scene.png,Palermo Via Matteo Bonello Museo Diocesano di Palermo (MUdiPA) SIC PA I Circoscrizione Italia 90100 it 2 Il Capo ,"cultural,museums,interesting_places,art_galleries",13.355544090270996,38.113731384277344
N1927130930,Museo d'arte e archeologia Ignazio Mormino,http://www.comune.palermo.it/musei/mormino/,null,https://ar.wikipedia.org/wiki/%3A%D9%85%D8%AA%D8%AD%D9%81%20%D8%A7%D8%AC%D9%86%D8%A7%D8%B2%D9%8A%D9%88%20%D9%85%D9%88%D8%B1%D9%85%D9%8A%D9%86%D9%88%20%D9%84%D9%84%D9%81%D9%86%D9%88%D9%86%20%D9%88%D8%A7%D9%84%D8%A2%D8%AB%D8%A7%D8%B1,https://commons.wikimedia.org/wiki/File:Museo_archeologico_Ignazio_Mormino.jpg,Palermo Via della Libertà SIC PA VIII Circoscrizione Italia 90143 it 52 ,"archaeological_museums,cultural,museums,interesting_places,history_museums,art_galleries",13.348925590515137,38.13444137573242
R1291721,Palazzo Steri,https://turismo.comune.palermo.it/palermo-welcome-luogo-dettaglio.php?tp=68&det=20&id=111;http://www.musei.unipa.it/carceri.html,null,https://en.wikipedia.org/wiki/Palazzo%20Chiaramonte,https://commons.wikimedia.org/wiki/File:Palermo-Palazzo-Chiaramonte-bjs2007-01.jpg,Palermo Palazzo Steri SIC PA I Circoscrizione Italia 90133 Piazza Marina it Kalsa ,"palaces,architecture,historic_architecture,cultural,museums,interesting_places,other_museums",13.370019912719727,38.117584228515625
W685468670,Sicilian Ethnographic Museum Giuseppe Pitrè,null,null,https://en.wikipedia.org/wiki/Sicilian%20Ethnographic%20Museum%20Giuseppe%20Pitr%C3%A8,https://commons.wikimedia.org/wiki/File:Palermo23.jpg,Palermo SIC PA VII Circoscrizione Italia 90146 it Pallavicino ,"cultural,museums,interesting_places,local_museums",13.330838203430176,38.166969299316406
W143741766,Museo Archeologico Regionale Antonio Salinas,http://www.regione.sicilia.it/beniculturali/salinas/,null,https://en.wikipedia.org/wiki/Antonino%20Salinas%20Regional%20Archeological%20Museum,https://commons.wikimedia.org/wiki/File:Museoarcheosalinas.JPG,Palermo SIC PA I Circoscrizione Italia 90132 Via Bara All'Olivella it La Loggia ,"archaeological_museums,cultural,museums,interesting_places,history_museums",13.36078929901123,38.12086486816406
W162450143,Museo di Geologia Gemmelaro,http://www.unipa.it/museogemmellaro,null,https://it.wikipedia.org/wiki/Museo%20di%20paleontologia%20e%20geologia%20Gaetano%20Giorgio%20Gemmellaro,https://commons.wikimedia.org/wiki/File:Elephant_skeleton_in_Museo_Gemellaro%2C_Palermo.jpg,Palermo Corso Tukory Museo di Geologia Gemmelaro SIC PA I Circoscrizione Italia 90127 it 131 Albergheria ,"cultural,museums,interesting_places,other_museums",13.35945987701416,38.10903549194336
Q106727264,Villa Zito,null,null,https://it.wikipedia.org/wiki/Villa%20Zito,https://commons.wikimedia.org/wiki/File:Villa_Zito_-_Veduta_esterna.jpg,Palermo Via della Libertà SIC PA VIII Circoscrizione Italia 90143 it 52 ,"museums,cultural,interesting_places,art_galleries",13.349108695983887,38.13447570800781
Q3891122,Palazzo Ziino,null,null,https://it.wikipedia.org/wiki/Palazzo%20Ziino,https://commons.wikimedia.org/wiki/File:Palazzo_Ziino.jpg,Palermo Via Dante SIC PA VIII Circoscrizione Italia 90139 it 53 ,"museums,cultural,interesting_places,other_museums",13.351702690124512,38.12407302856445
N2027074010,Museo dell'Osservatorio Astronomico,http://www.astropa.inaf.it/,null,https://en.wikipedia.org/wiki/Palermo%20Astronomical%20Observatory,https://commons.wikimedia.org/wiki/File:0564_-_Palermo_-_Palazzo_dei_Normanni%2C_facciata_principale_-_Foto_Giovanni_Dall%27Orto%2C_28-Sept-2006.jpg,Palermo Piazza del Parlamento Palazzo dei Normanni SIC PA I Circoscrizione Italia 90134 it 1 Albergheria ,"cultural,museums,interesting_places,other_museums",13.353172302246094,38.1114387512207
N2498804753,"Modern art gallery ""Empedocle Restivo""",http://www.galleriadartemodernapalermo.it,null,https://en.wikipedia.org/wiki/Modern%20Art%20Gallery%20Sant%27Anna,https://commons.wikimedia.org/wiki/File:Galleria_d%27Arte_Moderna_Palermo.jpg,"Palermo Galleria d'arte moderna ""Empedocle Restivo"" SIC PA I Circoscrizione Italia 90133 Via Sant'Anna it 21 Kalsa ","cultural,museums,interesting_places,art_galleries",13.365835189819336,38.11507797241211
N1572913967,Galleria Regionale,http://www.regione.sicilia.it/beniculturali/palazzoabatellis/,null,https://en.wikipedia.org/wiki/Palazzo%20Abatellis,https://commons.wikimedia.org/wiki/File:Palermo-Palazzo-Abatellis-bjs2007-01.jpg,Palermo Via Alloro SIC PA I Circoscrizione Italia 90133 it Kalsa ,"palaces,architecture,historic_architecture,cultural,museums,interesting_places,other_museums",13.371175765991211,38.11659240722656
W317811325,Cantieri Culturali alla Zisa,http://www.cantiericulturaliallazisa.it/;https://turismo.comune.palermo.it/palermo-welcome-cantieri-culturali-alla-zisa.php,null,https://it.wikipedia.org/wiki/Cantieri%20Culturali%20alla%20Zisa,https://commons.wikimedia.org/wiki/File:Cantieri_Culturali_della_Zisa%2C_Palermo_-_Spazio_Zac_-_Foto_di_Cristiano_Drago.jpg,Palermo Via Paolo Gili Cantieri Culturali alla Zisa SIC PA V Circoscrizione Italia 90138 it 4 Olivuzza ,"cultural,museums,interesting_places,other_museums",13.338521003723145,38.11824417114258
N2215309343,Museo del Risorgimento Vittorio Emanuele Orlando,http://www.storiapatria.it/,null,https://it.wikipedia.org/wiki/Museo%20del%20Risorgimento%20%28Palermo%29,https://commons.wikimedia.org/wiki/File:Palermo-San-Domenico-bjs2007-01.jpg,Palermo Lucchese SIC PA I Circoscrizione Italia 90133 Piazza San Domenico it 11 La Loggia ,"cultural,museums,interesting_places,other_museums",13.363090515136719,38.119407653808594
N8266578279,Archivio Storico Comunale,http://www.comune.palermo.it/comune/settori/cultura/istituzioni_culturali.htm,null,https://it.wikipedia.org/wiki/Archivio%20storico%20comunale%20di%20Palermo,https://commons.wikimedia.org/wiki/File:Archivio_storico_comunale.jpg,Palermo Via Giardinaccio SIC PA I Circoscrizione Italia 90140 it Kalsa ,"cultural,museums,interesting_places,local_museums",13.363542556762695,38.11372375488281
W926546486,Museo d'Arte Contemporanea della Sicilia,https://www.museoartecontemporanea.it/museo_Riso/,null,https://en.wikipedia.org/wiki/Palazzo%20Riso,https://commons.wikimedia.org/wiki/File:Palazzo_Blemonte_Riso.jpg,Palermo SIC PA I Circoscrizione Italia 90134 Vicolo del Cancelliere it Albergheria ,"cultural,museums,interesting_places,art_galleries",13.359884262084961,38.11521911621094
N2320556452,museo di Palazzo Mirto,null,null,https://it.wikipedia.org/wiki/Palazzo%20Mirto,https://commons.wikimedia.org/wiki/File:Palermo-AP-p1070637.jpg,Palermo SIC PA I Circoscrizione Italia 90133 Via Merlo it 2 Kalsa ,"palaces,architecture,historic_architecture,cultural,museums,interesting_places,other_museums",13.368224143981934,38.11655044555664
N1962531883,Museo storico dei motori e dei meccanismi,http://www.museomotori.unipa.it,null,https://it.wikipedia.org/wiki/Museo%20storico%20dei%20motori%20e%20dei%20meccanismi,https://commons.wikimedia.org/wiki/File:Fig._1_Museo_Motori_Unipa.jpg,Palermo Viale delle Scienze Unicredit Filiale UNIPA SIC PA IV Circoscrizione Italia 90128 it Pagliarelli ,"cultural,museums,interesting_places,other_museums",13.347099304199219,38.10439682006836
N267673035,museo dell'Islam,http://www.regione.sicilia.it/beniculturali/dirbenicult/database/page_musei/pagina_musei.asp?ID=11&IdSito=56,null,https://it.wikipedia.org/wiki/Museo%20d%27arte%20islamica%20%28Palermo%29,https://commons.wikimedia.org/wiki/File:Palermo-Zisa-bjs-4.jpg,Palermo Piazza Zisa SIC PA V Circoscrizione Italia 90138 it Olivuzza ,"cultural,museums,interesting_places,other_museums",13.341094017028809,38.11661911010742
W81301770,Museo di Zoologia Doderlein,http://www.museozoologia.unipa.it,null,https://it.wikipedia.org/wiki/Museo%20di%20zoologia%20Pietro%20Doderlein,https://commons.wikimedia.org/wiki/File:Museo_Zoologia_Doderlein.jpg,Palermo Via Archirafi Museo di Zoologia Doderlein SIC PA I Circoscrizione Italia 90133 it 16 Kalsa ,"cultural,museums,interesting_places,other_museums",13.371918678283691,38.11219787597656
Q15111157,Galleria Regionale della Sicilia (Palermo),null,null,https://de.wikipedia.org/wiki/Galleria%20Regionale%20della%20Sicilia,https://commons.wikimedia.org/wiki/File:Palermo-AP-p1070643.jpg,Palermo Via Alloro SIC PA I Circoscrizione Italia 90133 it Kalsa ,"museums,cultural,interesting_places,art_galleries",13.371110916137695,38.11666488647461
W400424488,Palatine Chapel,https://www.cappellapalatinapalermo.it/,null,https://it.wikipedia.org/wiki/Cappella%20Palatina%20%28Palermo%29,null,Palermo Piazza del Parlamento Palazzo dei Normanni SIC PA I Circoscrizione Italia 90134 it 1 Albergheria ,"religion,other_temples,cultural,museums,interesting_places,other_museums",13.353511810302734,38.11088562011719
Q55378090,"Mirto Palace Regional Museum, Palermo, Italy",null,null,null,https://commons.wikimedia.org/wiki/File:Palermo-AP-p1070637.jpg,Palermo Via Lungarini SIC PA I Circoscrizione Italia 90133 it Kalsa ,"museums,cultural,interesting_places,other_museums",13.368640899658203,38.11659240722656
W931688185,Ecomuseo Mare Memoria Viva,https://www.marememoriaviva.it/,null,null,https://commons.wikimedia.org/wiki/File:Eco_Museo_Urbano_Ex_deposito_locomotive_S._Erasmo_Via_Messina_Marine%2C33_Palermo.jpg,Palermo Via Messina Marine SIC PA II Circoscrizione Italia 90123 it Romagnolo ,"cultural,museums,interesting_places,other_museums",13.38056755065918,38.10916519165039
N1948131038,Arsenale della Real Marina,http://www.arsenaledipalermo.it;http://www.museodelmarepalermo.it/,null,https://it.wikipedia.org/wiki/Arsenale%20di%20Palermo%20-%20Museo%20del%20mare,null,Palermo Via dell'Arsenale SIC PA VIII Circoscrizione Italia 90142 it Acquasanta ,"cultural,museums,interesting_places,other_museums",13.367246627807617,38.136661529541016
N2577229586,"Museo delle maioliche ""Stanze al genio""",http://www.stanzealgenio.it;https://www.stanzealgenio.it/,null,https://it.wikipedia.org/wiki/Stanze%20al%20Genio,null,Palermo Via Giuseppe Garibaldi SIC PA I Circoscrizione Italia 90140 it Kalsa ,"cultural,museums,interesting_places,art_galleries",13.367351531982422,38.112911224365234
Q3867661,Museo aptico di Sicilia,null,null,https://it.wikipedia.org/wiki/Museo%20aptico%20di%20Sicilia,null,Palermo SIC PA VI Circoscrizione Italia 90146 it ,"museums,cultural,interesting_places,other_museums",13.313909530639648,38.16587829589844
Q3868370,Museo euromediterraneo delle arti contemporanee,null,null,https://it.wikipedia.org/wiki/Museo%20euromediterraneo%20delle%20arti%20contemporanee,null,Palermo SIC PA V Circoscrizione Italia 90138 it Olivuzza ,"museums,cultural,interesting_places,other_museums",13.34061050415039,38.118282318115234
W24818426,Museo di Mineralogia,http://dati.beniculturali.it/mibact/luoghi/www.associazionegeode.it/museo-di-mineralogia,null,null,null,Palermo Via Gian Filippo Ingrassia Museo di Mineralogia SIC PA II Circoscrizione Italia 90123 it ,"cultural,museums,interesting_places,other_museums",13.37341022491455,38.11023712158203
Q55359720,Museo del Risorgimento Vittorio Emanuele Orlando,null,null,null,null,Palermo Lucchese SIC PA I Circoscrizione Italia 90133 Piazza San Domenico it 11 La Loggia ,"museums,cultural,interesting_places,other_museums",13.363235473632812,38.11863327026367
Q55359718,"Museo del costume ""Raffaello Piraino""",null,null,null,null,Palermo Via della Università Tatum Art Jazz Club SIC PA I Circoscrizione Italia 90134 it 38 Albergheria ,"museums,cultural,interesting_places,other_museums",13.36068058013916,38.113834381103516
Q55359724,"Museo di scienze naturali ITG ""Filippo Parlatore""",null,null,null,null,Palermo Via Montevergini SIC PA I Circoscrizione Italia 90134 it Albergheria ,"museums,cultural,interesting_places,other_museums",13.358580589294434,38.11520767211914
Q55386411,Museo del giocattolo di Palermo,null,null,null,null,Palermo SIC PA I Circoscrizione Italia 90133 Via Bandiera it La Loggia ,"museums,cultural,interesting_places,other_museums",13.360061645507812,38.11845397949219
Q55676856,Museo regionale d’arte moderna e contemporanea - Palazzo Belmonte Riso,null,null,null,null,Palermo Via degli Schioppettieri SIC PA I Circoscrizione Italia 90133 it 1 La Loggia ,"museums,cultural,interesting_places,other_museums",13.363146781921387,38.116329193115234
Q55359725,"Museo di zoologia ""Pietro D'Oberlein""",null,null,null,null,Palermo Via Archirafi Museo di Zoologia Doderlein SIC PA I Circoscrizione Italia 90133 it 16 Kalsa ,"museums,cultural,interesting_places,other_museums",13.371721267700195,38.11198806762695
N3321172961,Esposizione strumenti medici ex ospedale psichiatrico,null,null,null,null,Palermo Via Altarello SIC PA IV Circoscrizione Italia 90129 it Altarello ,"cultural,museums,interesting_places,other_museums",13.332489013671875,38.10869216918945
W244314713,Entrance Palazzo Reale e Capilla Palatina,null,null,null,null,Palermo SIC PA I Circoscrizione Italia Piazza del Parlamento Cortile Maqueda it Albergheria ,"cultural,museums,interesting_places,other_museums",13.354354858398438,38.11192321777344
N6124516286,Музей марионеток,null,null,null,null,Palermo SIC PA I Circoscrizione Italia it Kalsa ,"cultural,museums,interesting_places,other_museums",13.37089729309082,38.11903762817383
N7174955199,MEC Museum,https://www.mecmuseum.it/,null,null,null,Palermo Corso Vittorio Emanuele MEC Museum SIC PA I Circoscrizione Italia 90134 it 452 Albergheria ,"cultural,museums,interesting_places,museums_of_science_and_technology,other_technology_museums",13.35732650756836,38.113887786865234
W977504738,Loggiato di San Bartolomeo,http://www.cittametropolitana.pa.it/turismo/tesori_d_arte_a_palermo/00007996_Loggiato_di_San_Bartolomeo.html,null,null,null,Palermo SIC PA I Circoscrizione Italia Piazzetta Rosario La Duca it Kalsa ,"cultural,museums,interesting_places,art_galleries",13.370796203613281,38.1198616027832
N5027762024,Gran Cafe San Domenico,https://sandomenicobologna.it,null,https://en.wikipedia.org/wiki/San%20Domenico%2C%20Bologna,https://commons.wikimedia.org/wiki/File:San_Domenico01.jpg,Palermo Lucchese SIC PA I Circoscrizione Italia 90133 Piazza San Domenico it 11 La Loggia ,"religion,architecture,historic_architecture,churches,monasteries,interesting_places,cafes,foods,catholic_churches,tourist_facilities,other_buildings_and_structures",13.363130569458008,38.11846160888672
N3739841051,Ristorante Alle Terrazze,http://www.alleterrazze.it/;www.alleterrazze.it,null,null,https://commons.wikimedia.org/wiki/File:Stabilimento_Balneare%2C_Mondello.jpg,Palermo Viale Regina Elena SIC PA VII Circoscrizione Italia 90151 it Valdesi ,"restaurants,foods,tourist_facilities",13.327357292175293,38.20228576660156
N269456078,Antica Focacceria San Francesco,http://www.afsf.it,null,null,https://commons.wikimedia.org/wiki/File:Pasticceria_-_panoramio.jpg,Palermo Antica Focacceria San Francesco SIC PA I Circoscrizione Italia 90133 Via Alessandro Paternostro it 58 Kalsa ,"restaurants,foods,tourist_facilities",13.366144180297852,38.1163330078125
N5124107205,U Bar,null,null,null,null,Palermo Via Guido d'Arezzo SIC PA VIII Circoscrizione Italia 90144 it ,"foods,cafes,tourist_facilities",13.332508087158203,38.140106201171875
W81191530,Mensa,null,null,null,null,Palermo Via Gaetano Lodato SIC PA III Circoscrizione Italia 90127 it ,"foods,restaurants,tourist_facilities",13.359204292297363,38.104164123535156
N5066749596,La Botte,null,null,null,null,Strada statale di Monreale Monreale SIC PA Case Davì Italia 90046 it ,"foods,restaurants,tourist_facilities",13.26754379272461,38.065860748291016
W81431411,Villa Flora,null,null,null,null,Palermo SIC PA IV Circoscrizione Italia 90131 it ,"foods,restaurants,tourist_facilities",13.304513931274414,38.090885162353516
N3141458025,Restaurant Al Condominio,null,null,null,null,Via Venero Monreale SIC PA Italia 90046 it ,"foods,restaurants,tourist_facilities",13.280102729797363,38.07533645629883
N5955554085,Tramezzineria del corso,null,null,null,null,Via Pietro Novelli Monreale Tramezzineria del corso SIC PA Italia 90046 it 65 ,"foods,fast_food,tourist_facilities",13.288646697998047,38.08085250854492
N6412178912,Pizzeria Totò,null,null,null,null,Monreale SIC PA Italia 90046 Chiasso Ciro Menotti it ,"foods,restaurants,tourist_facilities",13.29073429107666,38.081485748291016
N3622256894,Baby 'O,null,null,null,null,Monreale Baby 'O SIC PA Italia 90131 Piazza Guglielmo Il it 8/9 ,"foods,cafes,tourist_facilities",13.291370391845703,38.08216857910156
N6326220659,Bar Mirto,null,null,null,null,Via Roma Monreale Punto Enel SIC PA Italia 90046 it 11 ,"foods,cafes,tourist_facilities",13.291547775268555,38.08235549926758
N6064375087,le Barrique,null,null,null,null,Via Arcivescovado Monreale le Barrique SIC PA Italia 90046 it 4 ,"foods,cafes,tourist_facilities",13.292627334594727,38.08262634277344
N6906559749,Trinacria Food and Drink,null,null,null,null,Salita S. Cristofaro Monreale SIC PA Italia 90131 it ,"foods,cafes,tourist_facilities",13.291722297668457,38.08274459838867
N3344704286,Bar del Sole,null,null,null,null,Via Roma Monreale Punto Enel SIC PA Italia 90046 it 11 ,"foods,bars,tourist_facilities",13.291526794433594,38.082550048828125
N5096100388,Il Melograno,null,null,null,null,Palermo Corso Calatafimi SIC PA IV Circoscrizione Italia 90131 it 1079 Altarello ,"foods,restaurants,tourist_facilities",13.309463500976562,38.09474563598633
N5066031740,Bar Rocca,null,null,null,null,Palermo Corso Calatafimi SIC PA IV Circoscrizione Italia 90131 it Altarello ,"foods,cafes,tourist_facilities",13.309210777282715,38.094356536865234
N5113270592,Golden House,null,null,null,null,Palermo Corso Calatafimi SIC PA IV Circoscrizione Italia 90131 it Altarello ,"foods,cafes,tourist_facilities",13.317209243774414,38.09761428833008
N5741869941,L'Amanita Pizzeria,null,null,null,null,Palermo Corso Calatafimi SIC PA IV Circoscrizione Italia 90131 it Altarello ,"foods,restaurants,tourist_facilities",13.317524909973145,38.09772491455078
N6344705081,Ristoro Paruta,null,null,null,null,Palermo Via Cesare Terranova SIC PA IV Circoscrizione Italia 90131 it Pagliarelli ,"foods,cafes,tourist_facilities",13.318890571594238,38.096187591552734
N5061710427,Pasticceria Salvo Albicocco,null,null,null,null,Palermo Corso Calatafimi Funeral Agency Giuliano SIC PA IV Circoscrizione Italia 90131 it 951 Altarello ,"foods,cafes,tourist_facilities",13.322254180908203,38.099952697753906
N493514041,Il Ghiottone,http://www.ilghiottonepalermo.it/,null,null,null,Palermo Via Salvatore Bertini Il Ghiottone SIC PA IV Circoscrizione Italia 90129 it 4 Pagliarelli ,"foods,restaurants,tourist_facilities",13.333229064941406,38.09980392456055
N5085694115,Pizzeria,null,null,null,null,Palermo Via Palmerino SIC PA IV Circoscrizione Italia 90129 it Pagliarelli ,"foods,restaurants,tourist_facilities",13.337285995483398,38.100013732910156
N5060706604,Maxi Bar,null,null,null,null,Palermo Via Francesco Baiardi SIC PA IV Circoscrizione Italia 90129 it Pagliarelli ,"foods,cafes,tourist_facilities",13.331924438476562,38.10057830810547
N5092316173,Caffetteria,null,null,null,null,Palermo Via Palmerino SIC PA IV Circoscrizione Italia 90129 it Pagliarelli ,"foods,cafes,tourist_facilities",13.336929321289062,38.09965515136719
N5097212851,al Pollo Duemila,null,null,null,null,Palermo Corso Calatafimi SIC PA IV Circoscrizione Italia 90131 it Altarello ,"foods,restaurants,tourist_facilities",13.328341484069824,38.10239791870117
N5917924551,La Bottega del Caffé,null,null,null,null,Palermo Via Villagrazia SIC PA III Circoscrizione Italia 90125 it 275 Chiavelli ,"foods,cafes,tourist_facilities",13.347970962524414,38.08610153198242
N8556584699,Bar dell'Albero,null,null,null,null,Palermo Via dell'Ermellino SIC PA III Circoscrizione Italia 90125 it Chiavelli ,"foods,cafes,tourist_facilities",13.358465194702148,38.085899353027344
N5057886444,Bistrot Leonardo,null,null,null,null,Palermo Caffe Ristoro Turba SIC PA IV Circoscrizione Italia Piazza Generale Euclide Turba 90129 it 72 Pagliarelli ,"foods,cafes,tourist_facilities",13.338876724243164,38.10050964355469
W81030476,Baby Luna,null,null,null,null,Palermo SIC PA IV Circoscrizione Italia 90128 it Pagliarelli ,"foods,bars,tourist_facilities",13.34327507019043,38.08995056152344
N5294560821,A facci ri miriusi,null,null,null,null,Palermo Via Turchia SIC PA V Circoscrizione Italia 90145 it Passo di Rigano ,"foods,restaurants,tourist_facilities",13.314291000366211,38.13129806518555
N5102417867,Panificio De Simone,null,null,null,null,Palermo Via Titina de Filippo SIC PA IV Circoscrizione Italia 90129 it 32 Altarello ,"foods,shops,cafes,bakeries,tourist_facilities",13.32714557647705,38.102996826171875
N5097212853,Bar Palazzotto M.,null,null,null,null,Palermo Corso Calatafimi SIC PA IV Circoscrizione Italia 90131 it Altarello ,"foods,cafes,tourist_facilities",13.327799797058105,38.1021842956543
N5415911764,La rosticceria dell'angolo,null,null,null,null,Palermo Via Giuseppe Mulè La rosticceria dell'angolo SIC PA IV Circoscrizione Italia 90129 it 11 Altarello ,"foods,fast_food,tourist_facilities",13.335198402404785,38.10273361206055
N5057886471,Caffe Ganci e Figli,null,null,null,null,Palermo Via Aurelio Drago Parruccheria - Estetica - Carlo SIC PA IV Circoscrizione Italia 90129 it 19 Altarello ,"foods,cafes,tourist_facilities",13.331826210021973,38.105133056640625
N5412716546,Cafè Prestige,null,null,null,null,Palermo Viale Maria Santissima Mediatrice SIC PA IV Circoscrizione Italia 90129 it Pagliarelli ,"foods,cafes,tourist_facilities",13.333826065063477,38.1006965637207
N5521916310,P.S. Gastronomia Polleria,null,null,null,null,Palermo Viale Maria Santissima Mediatrice P.S. Gastronomia Polleria SIC PA IV Circoscrizione Italia 90129 it 9 Pagliarelli ,"foods,fast_food,tourist_facilities",13.333630561828613,38.101043701171875
N619433107,Bar Carnevale,null,null,null,null,Palermo Corso Calatafimi Tabacchi Carnevale SIC PA IV Circoscrizione Italia 90129 it 621b Altarello ,"foods,cafes,tourist_facilities",13.333001136779785,38.10429000854492
N6269545638,Vanilla,null,null,null,null,Palermo Via Porrazzi SIC PA IV Circoscrizione Italia 90129 it 10 Altarello ,"foods,cafes,tourist_facilities",13.33401870727539,38.103729248046875
N1676296954,Bistrot Albicocco,null,null,null,null,Palermo Via Giuseppe Arcoleo Albicocco Vincenzo SIC PA IV Circoscrizione Italia 90129 it 35 Altarello ,"foods,cafes,tourist_facilities",13.33389663696289,38.105342864990234
N5087004863,Polleria Pizzeria Sinagra,null,null,null,null,Palermo Via Giuseppe Arcoleo Polleria Pizzeria Sinagra SIC PA IV Circoscrizione Italia 90129 it 33 Altarello ,"foods,fast_food,tourist_facilities",13.333903312683105,38.10530471801758
N5058806333,Polli allo spiedo - Focacceria,null,null,null,null,Palermo Corso Calatafimi Polli allo spiedo - Focacceria SIC PA IV Circoscrizione Italia 90129 it 579 Altarello ,"foods,fast_food,tourist_facilities",13.334451675415039,38.10488510131836
N5084792559,Gastronomia Panineria,null,null,null,null,Palermo Sirio SIC PA IV Circoscrizione Italia Via Gino Marinuzzi 90129 it 17 Altarello ,"foods,fast_food,tourist_facilities",13.335058212280273,38.1047248840332
N5102016533,Coco Bar,null,null,null,null,Palermo Via Tasca Lanza SIC PA IV Circoscrizione Italia 90129 it Altarello ,"foods,cafes,tourist_facilities",13.329435348510742,38.10977554321289
N5058133169,La Cubana,null,null,null,null,Palermo Via Giuseppe Pitrè SIC PA IV Circoscrizione Italia 90129 it 139 Altarello ,"foods,cafes,tourist_facilities",13.330829620361328,38.11062240600586
N5102016545,Focacceria della Circonvallazione,null,null,null,null,Palermo Via Tasca Lanza SIC PA IV Circoscrizione Italia 90129 it Altarello ,"foods,fast_food,tourist_facilities",13.32972240447998,38.10760498046875
N5102016535,Al Panino Divino,null,null,null,null,Palermo Via Tasca Lanza SIC PA IV Circoscrizione Italia 90129 it Altarello ,"foods,fast_food,tourist_facilities",13.32944393157959,38.109703063964844
N5415244323,L'Arte della Pizza,null,null,null,null,Palermo Via Altarello SIC PA IV Circoscrizione Italia 90129 it Altarello ,"foods,restaurants,tourist_facilities",13.335979461669922,38.110313415527344
N5057886468,Bar Al Mosqyto,null,null,null,null,Palermo Via Gaetano La Loggia SIC PA IV Circoscrizione Italia 90129 it 3 Altarello ,"foods,cafes,tourist_facilities",13.336860656738281,38.107967376708984
N5093969041,Bar Tabacchi,null,null,null,null,Palermo Via Giuseppe Pitrè SIC PA IV Circoscrizione Italia 90129 it Altarello ,"foods,cafes,tourist_facilities",13.335709571838379,38.11055374145508
N7741736185,Ro.Vi.Ro Cafè,null,null,null,null,Palermo Fondo La Manna SIC PA V Circoscrizione Italia 90135 it Olivuzza ,"foods,cafes,tourist_facilities",13.330889701843262,38.119930267333984
N4676414590,Cobra,null,null,null,null,Palermo SIC PA V Circoscrizione Italia 90135 it Olivuzza ,"foods,bars,tourist_facilities",13.329188346862793,38.120121002197266
N5057833978,Bar del Corso,null,null,null,null,Palermo SIC PA IV Circoscrizione Italia 90129 it ,"foods,cafes,tourist_facilities",13.34000015258789,38.10686111450195
N5057833981,Bar Excelsior,null,null,null,null,Palermo SIC PA IV Circoscrizione Italia 90129 it ,"foods,cafes,tourist_facilities",13.340405464172363,38.10728454589844
N5058068341,L'Angolo Gastronomico,null,null,null,null,Palermo SIC PA IV Circoscrizione Italia Corso Calatafimi 90129 it Altarello ,"foods,fast_food,tourist_facilities",13.340777397155762,38.1071891784668
N5063528125,Bar Splendori,null,null,null,null,Palermo Via Pindemonte SIC PA IV Circoscrizione Italia 90129 it 100 ,"foods,cafes,tourist_facilities",13.339588165283203,38.11079025268555
N5058122134,Bar Miragliotti,null,null,null,null,Palermo Via Pindemonte SIC PA IV Circoscrizione Italia 90129 it 90 ,"foods,cafes,tourist_facilities",13.340272903442383,38.1089973449707
N5099947922,Zaliclò,null,null,null,null,Palermo SIC PA IV Circoscrizione Italia Via Pindemonte 90129 it Altarello ,"foods,restaurants,tourist_facilities",13.34066390991211,38.107505798339844
N1165404450,Bar Santa Rosalia,null,null,null,null,Palermo Piazza Montegrappa SIC PA IV Circoscrizione Italia 90128 it ,"foods,cafes,tourist_facilities",13.352075576782227,38.1021614074707
N2104909543,Bar Accardi,http://www.accardipasticceria.com,null,null,null,Palermo SIC PA IV Circoscrizione Italia 90128 it ,"foods,bars,tourist_facilities",13.350722312927246,38.10285949707031
N6175383785,Trattoria Michele e Jolanda,null,null,null,null,Palermo Via Cappuccini Trattoria Michele e Jolanda SIC PA IV Circoscrizione Italia 90129 it 12 ,"foods,restaurants,tourist_facilities",13.348684310913086,38.11119842529297
N5058122133,Testagrossa,null,null,null,null,Palermo Corso Calatafimi SIC PA IV Circoscrizione Italia 90129 it 12 Altarello ,"foods,fast_food,tourist_facilities",13.349616050720215,38.110965728759766
N380989348,Massaro,null,null,null,null,Palermo Via Ernesto Basile Massaro SIC PA IV Circoscrizione Italia 90128 it 26 ,"foods,bars,tourist_facilities",13.354087829589844,38.10702133178711
N7911955931,Focacceria San Giovanni,null,null,null,null,Palermo Vicolo San Mercurio SIC PA I Circoscrizione Italia 90128 it Albergheria ,"foods,fast_food,tourist_facilities",13.354366302490234,38.110164642333984
N8259074252,Bar D'Alba,null,null,null,null,Palermo Via Eugenio l'Emiro SIC PA V Circoscrizione Italia 90138 it Olivuzza ,"foods,cafes,tourist_facilities",13.340557098388672,38.11467361450195
N276928035,la Cueva,null,null,null,null,Palermo Via delle Balate Teatro delle Balate SIC PA I Circoscrizione Italia 90134 it 5;7 Albergheria ,"foods,bars,tourist_facilities",13.357060432434082,38.11089324951172
N5411081653,Baretto,null,null,null,null,Palermo Via Guglielmo Albimonte SIC PA V Circoscrizione Italia 90138 it Olivuzza ,"foods,cafes,tourist_facilities",13.346805572509766,38.1165657043457
N5411990834,Panineria Da Spirito,null,null,null,null,Palermo Via Cipressi SIC PA IV Circoscrizione Italia 90138 it ,"foods,fast_food,tourist_facilities",13.34306812286377,38.11347198486328
N5418467210,Casa Nostra,null,null,null,null,Palermo Piazza Principe di Camporeale SIC PA V Circoscrizione Italia 90138 it Olivuzza ,"foods,restaurants,tourist_facilities",13.341811180114746,38.11927795410156
N6063536385,Bar - Ristorante,null,null,null,null,Palermo Via Perpignano Bar - Ristorante SIC PA V Circoscrizione Italia 90135 it 88 Olivuzza ,"foods,cafes,tourist_facilities",13.337736129760742,38.119197845458984
N5387886565,Bar Gabry,null,null,null,null,Palermo Via Alessio Narbone SIC PA V Circoscrizione Italia 90138 it 2 Olivuzza ,"foods,cafes,tourist_facilities",13.34404468536377,38.122032165527344
N5371213608,Focacceria Polli allo Spiedo Testagrossa,null,null,null,null,Palermo Via Dante SIC PA VIII Circoscrizione Italia 90141 it 196 ,"foods,fast_food,tourist_facilities",13.345973014831543,38.12250900268555
N8130759559,232,null,null,null,null,Palermo Via Dante SIC PA VIII Circoscrizione Italia 90141 it 127 ,"pubs,foods,tourist_facilities",13.34508228302002,38.122291564941406
N4689903489,Facebar,null,null,null,null,Palermo Viale Leonardo da Vinci SIC PA V Circoscrizione Italia 90135 it Passo di Rigano ,"foods,bars,tourist_facilities",13.321866989135742,38.12674331665039
N1768879171,Trattoria Ai Cascinari,https://www.cascinari.com,null,null,null,Palermo Via D'Ossuna Tratoria Ai Cascinari SIC PA I Circoscrizione Italia 90138 it 43/45 Il Capo ,"foods,restaurants,tourist_facilities",13.349992752075195,38.115478515625
N7989029085,Sfrigola,null,null,null,null,Palermo Corso Calatafimi SIC PA I Circoscrizione Italia 90134 it Albergheria ,"foods,fast_food,tourist_facilities",13.352222442626953,38.11208724975586
N5030128122,Bistrot Cappello C,null,null,null,null,Palermo Corso Calatafimi SIC PA I Circoscrizione Italia 90134 it Albergheria ,"foods,cafes,tourist_facilities",13.35229778289795,38.11211395263672
N5457347478,Ristorantino Da Spanò,null,null,null,null,Palermo Vicolo Pirriaturi SIC PA I Circoscrizione Italia 90134 it Il Capo ,"foods,restaurants,tourist_facilities",13.35381031036377,38.11659622192383
N7115479539,Barresi Macelleria & Fast-food,https://barresisteakhouse.it/,null,null,null,Palermo Via Papireto Barresi Macelleria & Fast-food SIC PA I Circoscrizione Italia 90134 it 64 Il Capo ,"foods,fast_food,tourist_facilities",13.351507186889648,38.11697006225586
N5476722778,Da Mimi,null,null,null,null,Palermo Via Cappuccinelle SIC PA I Circoscrizione Italia 90134 it Il Capo ,"foods,fast_food,tourist_facilities",13.352609634399414,38.116207122802734
W186189353,Al Fondaco del Conte,http://www.alfondacodelconte.it/en/,null,null,null,Palermo Piazza Conte Federico Al Fondaco del Conte SIC PA I Circoscrizione Italia 90134 it 24 Albergheria ,"foods,restaurants,tourist_facilities",13.35862922668457,38.11220169067383
N1968794429,Bar Duomo,null,null,null,null,Palermo Bar del Duomo SIC PA I Circoscrizione Italia 90134 Via Simone di Bologna it 9 Albergheria ,"foods,cafes,tourist_facilities",13.35700798034668,38.11412811279297
N4622705689,Moltivolti,null,null,null,null,Palermo Via San Giuseppe Mario Puglia Moltivolti SIC PA I Circoscrizione Italia 90134 it 21 Albergheria ,"foods,bars,tourist_facilities",13.359347343444824,38.11287307739258
N5457347443,Papyrus,null,null,null,null,Palermo Piazza Papireto SIC PA I Circoscrizione Italia it Il Capo ,"foods,restaurants,tourist_facilities",13.354131698608398,38.11521530151367
N4290761090,La Galleria,null,null,null,null,Palermo Salita Giuseppe Artale La Galleria SIC PA I Circoscrizione Italia 90134 it 3 Il Capo ,"foods,restaurants,tourist_facilities",13.356407165527344,38.11507034301758
N5476722876,Casanova,null,null,null,null,Palermo Vicolo Tortorici SIC PA I Circoscrizione Italia 90134 it Il Capo ,"foods,restaurants,tourist_facilities",13.355810165405273,38.116004943847656
N5457347310,Kaleido,null,null,null,null,Palermo Via Vittorio Emanuele Kaleido SIC PA I Circoscrizione Italia 90134 it 446 Albergheria ,"foods,cafes,tourist_facilities",13.357519149780273,38.114009857177734
N6661540986,Ballarak Ballarak,null,null,null,null,Palermo Via Saladino SIC PA I Circoscrizione Italia 90134 it Albergheria ,"pubs,foods,tourist_facilities",13.358999252319336,38.11327362060547
N4299229589,Caffè del Kassaro,null,null,null,null,Palermo Corso Vittorio Emanuele Caffè del Kassaro SIC PA I Circoscrizione Italia 90134 it 390 Albergheria ,"foods,restaurants,tourist_facilities",13.358869552612305,38.11452102661133
N8958019517,icecream anti mafia,null,null,null,null,Palermo Via Montevergini SIC PA I Circoscrizione Italia 90134 it Albergheria ,"foods,cafes,tourist_facilities",13.358963966369629,38.11473846435547
N5451557134,Malox,null,null,null,null,Palermo SIC PA I Circoscrizione Italia Piazzetta della Canna it Il Capo ,"foods,bars,tourist_facilities",13.358884811401367,38.115657806396484
N5451557152,Mug,null,null,null,null,Palermo SIC PA I Circoscrizione Italia Piazzetta della Canna it Il Capo ,"foods,bars,tourist_facilities",13.358841896057129,38.11577224731445
N5451557173,Break,null,null,null,null,Palermo SIC PA I Circoscrizione Italia Piazzetta della Canna it Il Capo ,"foods,bars,tourist_facilities",13.358901977539062,38.115806579589844
N5457347423,Chupitos,null,null,null,null,Palermo Via Candelai Chupitos SIC PA I Circoscrizione Italia 90134 it 96 Il Capo ,"foods,bars,tourist_facilities",13.358233451843262,38.11650085449219
N6854775605,Sit & Mancia,null,null,null,null,Palermo Via Porta Carini Salumeria Macelleria Guagliata Pietro SIC PA I Circoscrizione Italia 90134 it 63-65 Il Capo ,"foods,restaurants,tourist_facilities",13.353827476501465,38.119140625
N4617236492,Pizza Goethe,null,null,null,null,Palermo Via Giovanni Pacini SIC PA VIII Circoscrizione Italia 90138 it ,"foods,fast_food,tourist_facilities",13.35061264038086,38.119747161865234
N5374926709,Caffetteria Perlongo,null,null,null,null,Palermo Cortile Barcellona SIC PA VIII Circoscrizione Italia 90138 it ,"foods,cafes,tourist_facilities",13.348484992980957,38.12092971801758
N5131241021,San fransesco,null,null,null,null,Palermo Via Tripoli SIC PA I Circoscrizione Italia 90139 it Il Capo ,"foods,bars,tourist_facilities",13.353515625,38.121219635009766
N6561456902,le Angeliche,http://www.leangeliche.it,null,null,null,Palermo Vicolo dell'Abbadia le Angeliche SIC PA I Circoscrizione Italia 90134 it 10-14 Il Capo ,"foods,restaurants,tourist_facilities",13.35400390625,38.11792755126953
N3075665565,Supra I Mura,null,null,null,null,Palermo Supra I Mura SIC PA I Circoscrizione Italia 90138 Piazza Porta Carini it 5 Il Capo ,"foods,restaurants,tourist_facilities",13.353971481323242,38.11906814575195
N5457347299,Da Giorgio,null,null,null,null,Palermo Via Volturno Da Giorgio SIC PA I Circoscrizione Italia 90132 it 46 Il Capo ,"foods,restaurants,tourist_facilities",13.354619026184082,38.119483947753906
N7961890446,Rabbit Hole,https://rabbitholepalermo.it/,null,null,null,Palermo Via Volturno SIC PA I Circoscrizione Italia 90132 it 22 Il Capo ,"foods,cafes,tourist_facilities",13.354952812194824,38.11958694458008
N6648290885,I panini di Las Vegas,null,null,null,null,Palermo Via Giovanni Battista Pagano SIC PA I Circoscrizione Italia 90138 it Il Capo ,"foods,bars,tourist_facilities",13.353958129882812,38.118568420410156
N5448179845,Osteria Pane E Alivi,null,null,null,null,Palermo SIC PA I Circoscrizione Italia 90134 it Il Capo ,"foods,restaurants,tourist_facilities",13.358638763427734,38.117427825927734
N5488783125,Dress bar,null,null,null,null,Palermo Via Mariano Stabile SIC PA VIII Circoscrizione Italia 90132 it ,"foods,cafes,tourist_facilities",13.35468578338623,38.12167739868164
N5457347442,Falstaff,null,null,null,null,Palermo Via Pignatelli Aragona Pizzeria Torquemada SIC PA I Circoscrizione Italia 90141 it 64 Il Capo ,"pubs,foods,tourist_facilities",13.355570793151855,38.120872497558594
N6807363285,Cha,null,null,null,null,Palermo Via Velasquez SIC PA VIII Circoscrizione Italia 90139 it ,"foods,bars,tourist_facilities",13.35411548614502,38.122283935546875
N4290853694,Ristorante Pizzeria al 59,http://www.al59.com,null,null,null,Palermo Via Pignatelli Aragona SIC PA I Circoscrizione Italia 90132 Piazza Giuseppe Verdi it Il Capo ,"foods,restaurants,tourist_facilities",13.357048988342285,38.12107849121094
N1968976199,Antica Pasticceria Mazzara,null,null,null,null,Palermo SIC PA VIII Circoscrizione Italia 90132 Piazzale Ungheria Via Generale Magliocco it ,"foods,cafes,tourist_facilities",13.356603622436523,38.1217041015625
N5451557202,Capatoast,null,null,null,null,Palermo Via Maqueda Capatoast SIC PA I Circoscrizione Italia 90140 it 421 Il Capo ,"foods,fast_food,tourist_facilities",13.358779907226562,38.11994934082031
N5429712371,Burger King,null,null,null,null,Palermo Via Camillo Benso Conte di Cavour BNL SIC PA I Circoscrizione Italia 90100 it 151 Il Capo ,"foods,fast_food,tourist_facilities",13.358440399169922,38.121185302734375
N5448179855,Ziatina,null,null,null,null,Palermo SIC PA I Circoscrizione Italia 90132 Via Spinuzza it Il Capo ,"pubs,foods,tourist_facilities",13.35856819152832,38.12092208862305
N4143119990,Conara di Monaco ,null,null,null,null,Palermo SIC PA I Circoscrizione Italia 90132 Via Spinuzza it Il Capo ,"foods,bars,tourist_facilities",13.35828971862793,38.12099838256836
N5438151537,Lo Sparviero,null,null,null,null,Palermo Via Sperlinga SIC PA VIII Circoscrizione Italia 90132 it ,"foods,restaurants,tourist_facilities",13.356821060180664,38.121395111083984
N5928459887,Alex Bar,null,null,null,null,Palermo SIC PA V Circoscrizione Italia 90135 Piazza Antonio Zanca it Olivuzza ,"foods,cafes,tourist_facilities",13.328742027282715,38.124107360839844
N276929567,champagneria,null,null,null,null,Palermo Via Spinuzza SIC PA I Circoscrizione Italia 90132 it Il Capo ,"foods,bars,tourist_facilities",13.358742713928223,38.121089935302734
N303394372,Asia,null,null,null,null,Palermo Viale Regione Siciliana Nord Ovest SIC PA VIII Circoscrizione Italia 90145 it ,"foods,restaurants,tourist_facilities",13.33008098602295,38.127376556396484
N8685452749,Bar Bosco,null,null,null,null,Palermo Via Principe di Palagonia SIC PA VIII Circoscrizione Italia 90144 it ,"foods,cafes,tourist_facilities",13.336993217468262,38.13241958618164
N5088944223,McDonald's,null,null,null,null,Palermo SIC PA V Circoscrizione Italia 90145 it Olivuzza ,"foods,fast_food,tourist_facilities",13.328807830810547,38.12803649902344
N5121373152,Bigfoot,null,null,null,null,Palermo Vicolo Pistoia SIC PA V Circoscrizione Italia 90145 it Passo di Rigano ,"foods,cafes,tourist_facilities",13.33026123046875,38.13559341430664
N4676413996,Manila,null,null,null,null,Palermo Via Principe di Paternò SIC PA VIII Circoscrizione Italia 90145 it ,"foods,bars,tourist_facilities",13.332832336425781,38.136253356933594
N5121357651,400 gradi,null,null,null,null,Palermo Viale Lazio SIC PA VIII Circoscrizione Italia 90144 it ,"foods,restaurants,tourist_facilities",13.337100982666016,38.14164733886719
N6261256264,Xò,null,null,null,null,Palermo Via Molise SIC PA VIII Circoscrizione Italia 90144 it ,"pubs,foods,tourist_facilities",13.336688041687012,38.1418571472168
N5391982043,Srilankan Kebab,null,null,null,null,Palermo Via Dante SIC PA VIII Circoscrizione Italia 90141 it 172 ,"foods,fast_food,tourist_facilities",13.346949577331543,38.12274169921875
N8040164860,Wasabi,null,null,null,null,Palermo Via Segesta Edilizia Cassano SIC PA VIII Circoscrizione Italia 90141 it 2b ,"foods,restaurants,tourist_facilities",13.348248481750488,38.12390899658203
N4715467390,Il bacio nero,null,null,null,null,Palermo Piazza Lolli SIC PA VIII Circoscrizione Italia 90141 it ,"foods,bars,tourist_facilities",13.346932411193848,38.123531341552734
N5391982047,Bar Sonia,null,null,null,null,Palermo Via Dante SIC PA VIII Circoscrizione Italia 90141 it 166 ,"foods,cafes,tourist_facilities",13.347115516662598,38.12277603149414
N5392225944,Gusto,null,null,null,null,Palermo Via Dante SIC PA VIII Circoscrizione Italia 90141 it 79 ,"foods,cafes,tourist_facilities",13.348085403442383,38.12300491333008
N4713153290,Il bacio nero,null,null,null,null,Palermo Piazza Lolli SIC PA VIII Circoscrizione Italia 90141 it ,"foods,bars,tourist_facilities",13.346909523010254,38.12358856201172
N6364776351,L'angolo del gusto,null,null,null,null,Palermo Via Emanuele Notarbartolo L'angolo del gusto SIC PA VIII Circoscrizione Italia 90144 it 56/c ,"foods,restaurants,tourist_facilities",13.339761734008789,38.13103103637695
N6364695344,Malaspina Cafè,null,null,null,null,Palermo SIC PA VIII Circoscrizione Italia 90144 it ,"foods,cafes,tourist_facilities",13.338688850402832,38.13015365600586
N8715310091,McDonald's,null,null,null,null,Palermo Piazza Matteo Maria Boiardo SIC PA VIII Circoscrizione Italia 90144 it ,"foods,fast_food,tourist_facilities",13.342140197753906,38.13218688964844
N269251526,Kus Kus,null,null,null,null,Palermo Piazza Virgilio SIC PA VIII Circoscrizione Italia 90141 it ,"foods,restaurants,tourist_facilities",13.349067687988281,38.123756408691406
N5394304059,Coffee Time,null,null,null,null,Palermo Via Brunetto Latini SIC PA VIII Circoscrizione Italia 90141 it 35 ,"foods,cafes,tourist_facilities",13.34992504119873,38.12324523925781
N5415833406,Bar Black Silver,null,null,null,null,Palermo Via Brunetto Latini TIpolitografia De Luca SIC PA VIII Circoscrizione Italia 90141 it 7 ,"foods,cafes,tourist_facilities",13.350606918334961,38.12287521362305
N5057755987,Annette Lounge Bar,null,null,null,null,Palermo Via Sammartino SIC PA VIII Circoscrizione Italia 90141 it 19 ,"foods,cafes,tourist_facilities",13.350907325744629,38.12347412109375
N5371213612,Mignòn,null,null,null,null,Palermo Via Dante SIC PA VIII Circoscrizione Italia 90139 it 54 ,"foods,fast_food,tourist_facilities",13.350837707519531,38.123653411865234
N269241275,Whisky & Drink,null,null,null,null,Palermo Via Giosuè Carducci SIC PA VIII Circoscrizione Italia 90139 it ,"foods,bars,tourist_facilities",13.352608680725098,38.12449645996094
N8047354669,La Drogheria del Buongustaio,null,null,null,null,Palermo Via Niccolò Garzilli SIC PA VIII Circoscrizione Italia 90141 it 17 ,"foods,restaurants,tourist_facilities",13.352984428405762,38.125244140625
N8036444282,Kairos,null,null,null,null,Palermo Via Principe di Villafranca SIC PA VIII Circoscrizione Italia 90141 it ,"foods,cafes,tourist_facilities",13.351503372192383,38.125972747802734
N268695726,Laboratorio Martino,null,null,null,null,Palermo Via Enrico Parisi SIC PA VIII Circoscrizione Italia 90141 it ,"foods,cafes,tourist_facilities",13.352585792541504,38.12590789794922
N8061995368,Bar Rosanero,null,null,null,null,Palermo Via Venti Settembre SIC PA VIII Circoscrizione Italia 90139 it 36 ,"foods,cafes,tourist_facilities",13.35301399230957,38.125736236572266
N269241632,kitsch,null,null,null,null,Palermo Via Dodici Gennaio SIC PA VIII Circoscrizione Italia 90139 it ,"foods,bars,tourist_facilities",13.353116035461426,38.1254768371582
N267676150,Lord Green,null,null,null,null,Palermo Via Enrico Parisi SIC PA VIII Circoscrizione Italia 90141 it ,"foods,bars,tourist_facilities",13.35272216796875,38.125892639160156
N268842048,Santa Monica,null,null,null,null,Palermo Via Enrico Parisi SIC PA VIII Circoscrizione Italia 90141 it ,"foods,bars,tourist_facilities",13.353530883789062,38.12644958496094
N9010378418,Vino Divino,null,null,null,null,Palermo Via Velasquez SIC PA VIII Circoscrizione Italia 90139 it ,"foods,restaurants,tourist_facilities",13.353911399841309,38.12255859375
N8525177117,Hobento Palermo,null,null,null,null,Palermo Via Valerio Villareale SIC PA VIII Circoscrizione Italia 90132 it 35 ,"foods,restaurants,tourist_facilities",13.354755401611328,38.12302780151367
N274292097,Cofea,null,null,null,null,Palermo Via Valerio Villareale SIC PA VIII Circoscrizione Italia 90132 it 35 ,"foods,cafes,tourist_facilities",13.3558931350708,38.122615814208984
N4468386991,Bacio Nero,null,null,null,null,Palermo Via Folengo SIC PA VIII Circoscrizione Italia 90139 it ,"foods,cafes,tourist_facilities",13.35400104522705,38.12424087524414
N267368466,McDonald's,null,null,null,null,Palermo SIC PA VIII Circoscrizione Italia 90132 Piazzetta Bagnasco Via Di Stefano it ,"foods,fast_food,tourist_facilities",13.355144500732422,38.12358093261719
N4278652893,i cuochimi,null,null,null,null,Palermo Via Ruggero Settimo i cuochimi SIC PA VIII Circoscrizione Italia 90139 it 68 ,"foods,fast_food,tourist_facilities",13.356181144714355,38.123592376708984
N5451557206,Coffee & Chocolate,null,null,null,null,Palermo B&B Amelie SIC PA VIII Circoscrizione Italia 90139 Via Principe di Belmonte it 94 ,"foods,cafes,tourist_facilities",13.356831550598145,38.123592376708984
N5451557425,Antico Caffè Spinnato,null,null,null,null,Palermo B&B Amelie SIC PA VIII Circoscrizione Italia 90139 Via Principe di Belmonte it 94 ,"foods,cafes,tourist_facilities",13.356732368469238,38.123809814453125
N6585964385,VillaErmosa Cafe Bistrot,null,null,null,null,Palermo Via Villaermosa Villa Ermosa Cafe Bistrot SIC PA I Circoscrizione Italia 90132 it 25 La Loggia ,"foods,cafes,tourist_facilities",13.359312057495117,38.122764587402344
N3334372444,Skybar,https://t.co/75OVmXLK1x,null,null,null,Palermo Via Mariano Stabile Ades SIC PA VIII Circoscrizione Italia 90100 it 146 ,"foods,bars,tourist_facilities",13.358230590820312,38.123165130615234
N5410425435,Lato B,null,null,null,null,Palermo Via Mariano Stabile Pellicceria Cincillà SIC PA VIII Circoscrizione Italia 90100 it 122 ,"foods,bars,tourist_facilities",13.359302520751953,38.12345504760742
N268695629,Aluia,null,null,null,null,Palermo Via della Libertà Farmacia SIC PA VIII Circoscrizione Italia 90100 it 17a ,"foods,cafes,tourist_facilities",13.354533195495605,38.12701416015625
N5491591621,Di Martino,null,null,null,null,Palermo SIC PA VIII Circoscrizione Italia 90139 Via Giuseppe Mazzini it ,"foods,cafes,tourist_facilities",13.354763984680176,38.12727355957031
N3387871941,sushi station,null,null,null,null,Palermo Via Quintino Sella SIC PA VIII Circoscrizione Italia 90139 it ,"foods,fast_food,tourist_facilities",13.356215476989746,38.1273078918457
N267696384,volo,null,null,null,null,Palermo Via della Libertà SIC PA VIII Circoscrizione Italia 90139 it 6 ,"foods,bars,tourist_facilities",13.354629516601562,38.125701904296875
N5410425434,Vinoversa,null,null,null,null,Palermo Via Domenico Scinà SIC PA VIII Circoscrizione Italia 90132 it ,"foods,bars,tourist_facilities",13.357274055480957,38.125606536865234
N5476420221,Osteria lo Bianco,null,null,null,null,Palermo Via Emerico Amari SIC PA VIII Circoscrizione Italia 90100 it ,"foods,restaurants,tourist_facilities",13.358891487121582,38.12549591064453
N269496177,antica caffetteria Nascè,null,null,null,null,Palermo Via Quintino Sella SIC PA VIII Circoscrizione Italia 90139 it ,"foods,cafes,tourist_facilities",13.356983184814453,38.12773513793945
N2532953057,Il Marchese,null,null,null,null,Palermo Via Marchese Ugo Il Marchese SIC PA VIII Circoscrizione Italia 90141 it 56 ,"foods,bars,tourist_facilities",13.350132942199707,38.13246154785156
N269241835,byblo's,null,null,null,null,Palermo Via Simone Corleo SIC PA VIII Circoscrizione Italia 90139 it ,"foods,restaurants,tourist_facilities",13.354020118713379,38.128578186035156
N269241788,centro città,null,null,null,null,Palermo Via Gaetano Daita SIC PA VIII Circoscrizione Italia 90139 it ,"foods,cafes,tourist_facilities",13.354148864746094,38.128353118896484
N1416362549,Cotto a Legna,null,null,null,null,Palermo Via Giuseppe Sciuti Cotto a Legna SIC PA VIII Circoscrizione Italia 90143 it 104 ,"foods,restaurants,tourist_facilities",13.340642929077148,38.1362190246582
N4676413995,Sicilia,null,null,null,null,Palermo Via Sicilia SIC PA VIII Circoscrizione Italia 90144 it 35 ,"foods,bars,tourist_facilities",13.340672492980957,38.14438247680664
N4676429790,Alba,null,null,null,null,Palermo Via Marchese di Roccaforte SIC PA VIII Circoscrizione Italia 90143 it 2 ,"foods,bars,tourist_facilities",13.345967292785645,38.14434051513672
N1425088020,I comparucci,null,null,null,null,Palermo Via Domenico Di Marco I comparucci SIC PA VIII Circoscrizione Italia 90143 it 5 ,"foods,restaurants,tourist_facilities",13.344094276428223,38.14054489135742
N3730965263,Bar Lux,null,null,null,null,Palermo Via Francesco Paolo di Blasi Bar Lux SIC PA VIII Circoscrizione Italia 90144 it 25 ,"foods,bars,tourist_facilities",13.344391822814941,38.13962936401367
N4377498997,spinnato,null,null,null,null,Palermo Via della Libertà Banca Fideuram SIC PA VIII Circoscrizione Italia 90144 it 187 ,"foods,bars,tourist_facilities",13.345282554626465,38.14058303833008
N4095058690,Agorá Gusti Quotidiani,null,null,null,null,Palermo Via Marchese di Villabianca Agorá Gusti Quotidiani SIC PA VIII Circoscrizione Italia 90143 it 39 Acquasanta ,"foods,cafes,tourist_facilities",13.351795196533203,38.13547897338867
N8318092365,Querida,null,null,null,null,Palermo Via Maggiore Pietro Toselli SIC PA VIII Circoscrizione Italia 90143 it 83 Acquasanta ,"foods,bars,tourist_facilities",13.352185249328613,38.13679122924805
N8897963175,Stefa Piccolo Bar,null,null,null,null,Palermo Via Alaimo da Lentini SIC PA VIII Circoscrizione Italia 90142 it Acquasanta ,"foods,cafes,tourist_facilities",13.358716011047363,38.13692092895508
N8897983201,Cin Cin Bar,null,null,null,null,Palermo Via Montepellegrino SIC PA VIII Circoscrizione Italia 90142 it Acquasanta ,"foods,cafes,tourist_facilities",13.358707427978516,38.13701629638672
N4952163821,Cafe ristoro nobel,null,null,null,null,Palermo Via Montepellegrino SIC PA VIII Circoscrizione Italia 90142 it Acquasanta ,"foods,cafes,tourist_facilities",13.357745170593262,38.140174865722656
N8897922306,Friggitoria,null,null,null,null,Palermo Via Montepellegrino SIC PA VIII Circoscrizione Italia 90142 it Acquasanta ,"foods,fast_food,tourist_facilities",13.358795166015625,38.1362419128418
N8550742112,Grado Alcolico,null,null,null,null,Palermo Viale Strasburgo SIC PA VI Circoscrizione Italia 90146 it Resuttana ,"pubs,foods,tourist_facilities",13.33221435546875,38.14948654174805
N4666700289,Bar Mario,null,null,null,null,Palermo SIC PA VIII Circoscrizione Italia 90143 it Acquasanta ,"foods,bars,tourist_facilities",13.352566719055176,38.14506530761719
N8728690113,Beckers,null,null,null,null,Palermo Via Empedocle Restivo SIC PA VIII Circoscrizione Italia 90144 it ,"pubs,foods,tourist_facilities",13.3342924118042,38.14722442626953
N8728702248,Pane e Caffè,null,null,null,null,Palermo Via delle Madonie SIC PA VI Circoscrizione Italia 90144 it Resuttana ,"foods,bars,tourist_facilities",13.333747863769531,38.14749526977539
N5241880549,Bar Chèri,null,null,null,null,Palermo Via Ignazio Mormino Bar Chèri SIC PA VII Circoscrizione Italia 90146 it 5 Patti ,"foods,cafes,tourist_facilities",13.312887191772461,38.17552185058594
N1813869348,Bonida,null,null,null,null,Palermo Via San Nicola Conca d'Oro SIC PA VII Circoscrizione Italia 90147 it 1963 Patti ,"foods,bars,tourist_facilities",13.308146476745605,38.183467864990234
N1745443147,Il chicco in frac,null,null,null,null,Palermo Via Empedocle Restivo Il chicco in frac SIC PA VIII Circoscrizione Italia 90144 it 101 ,"foods,bars,tourist_facilities",13.333584785461426,38.14838790893555
N7783600386,Bar Touring,null,null,null,null,Palermo Piazza Europa SIC PA VI Circoscrizione Italia 90146 it Resuttana ,"foods,cafes,tourist_facilities",13.331700325012207,38.14877700805664
N1982655188,Burger King,null,null,null,null,Palermo Viale Regione Siciliana Nord Ovest SIC PA VI Circoscrizione Italia 90146 it Cruillas ,"foods,fast_food,tourist_facilities",13.324466705322266,38.149497985839844
N7392740945,Albatros,null,null,null,null,Palermo Via Principe di Pantelleria SIC PA VI Circoscrizione Italia 90146 it Resuttana ,"foods,cafes,tourist_facilities",13.324472427368164,38.15952682495117
N568051167,Il Giardino,null,null,null,null,Palermo Via Isaac Rabin SIC PA VIII Circoscrizione Italia 90142 it Acquasanta ,"foods,restaurants,tourist_facilities",13.357209205627441,38.14476013183594
N2284861949,Cafe al Golfo,null,null,null,null,Palermo Piazza Antonio Beccadelli SIC PA VII Circoscrizione Italia 90148 it ,"foods,cafes,tourist_facilities",13.274330139160156,38.19784927368164
N5822483353,Местный деревенский ресторанчик меню 25€,null,null,null,null,Palermo SIC PA VII Circoscrizione Italia 90148 it ,"foods,restaurants,tourist_facilities",13.27517318725586,38.198360443115234
N7741696686,Sea Fruit's,null,null,null,null,Palermo Via Torretta SIC PA VII Circoscrizione Italia 90148 it ,"foods,restaurants,tourist_facilities",13.275474548339844,38.19851303100586
N4150440489,Touring Café,null,null,null,null,Palermo Viale Regina Elena SIC PA VII Circoscrizione Italia 90151 it Valdesi ,"foods,cafes,tourist_facilities",13.325512886047363,38.203285217285156
W133392081,Le Antiche Mura,null,null,null,null,Palermo Via Mattei SIC PA VII Circoscrizione Italia 90151 it 1 Valdesi ,"foods,restaurants,tourist_facilities",13.321074485778809,38.19594955444336
N7194387385,Poldo 2 Modello,null,null,null,null,Palermo Via Torre di Mondello SIC PA VII Circoscrizione Italia 90151 it Valdesi ,"foods,restaurants,tourist_facilities",13.325873374938965,38.207000732421875
N4556745095,Calogero,null,null,null,null,Palermo Via Torre di Mondello SIC PA VII Circoscrizione Italia 90151 it Valdesi ,"foods,restaurants,tourist_facilities",13.325956344604492,38.207054138183594
N4409360691,Caffeteria Valdesi,null,null,null,null,Palermo Viale Regina Elena SIC PA VII Circoscrizione Italia 90151 it Valdesi ,"foods,cafes,tourist_facilities",13.330425262451172,38.19779586791992
N5210626456,Le Lunette,null,null,null,null,Palermo Viale Regina Elena SIC PA VII Circoscrizione Italia 90151 it Valdesi ,"foods,fast_food,tourist_facilities",13.325385093688965,38.206146240234375
N4727235190,Antico chiosco,null,null,null,null,Palermo SIC PA VII Circoscrizione Italia Piazza Mondello it Valdesi ,"foods,bars,tourist_facilities",13.32616138458252,38.20756912231445
N4727240089,Danimart,null,null,null,null,Palermo Piazza Mondello Roxy Bar SIC PA VII Circoscrizione Italia 90151 it 27 Valdesi ,"foods,bars,tourist_facilities",13.326395034790039,38.20781326293945
